{"type":"FeatureCollection","features":[{"type":"Feature","properties":{"name":"Capitol Area Council","county_count":15,"area_sq_km":35048.77,"source":"Derived from U.S. Census Bureau 2025 county boundaries"},"geometry":{"type":"Polygon","coordinates":[[[-99.484755,30.940605],[-99.484694,30.909617],[-99.484699,30.909603],[-99.484366,30.823445],[-99.483869,30.710771],[-99.483997,30.644254],[-99.484049,30.625182],[-99.484401,30.550104],[-99.48453,30.516912],[-99.484493,30.499641],[-99.308119,30.499793],[-99.303996,30.499832],[-99.303764,30.472182],[-99.302067,30.300648],[-99.301718,30.286653],[-99.301952,30.28107],[-99.301656,30.227924],[-99.301425,30.187937],[-99.301012,30.135947],[-99.300988,30.134298],[-99.214513,30.135067],[-99.187187,30.135372],[-99.155645,30.135725],[-99.125445,30.136061],[-99.064964,30.136736],[-98.979419,30.137726],[-98.958694,30.137969],[-98.920147,30.13829],[-98.90678,30.138312],[-98.772046,30.13798],[-98.75031,30.138188],[-98.749684,30.138523],[-98.73003,30.138589],[-98.667658,30.138799],[-98.656658,30.138837],[-98.625306,30.138945],[-98.624601,30.138886],[-98.587897,30.138954],[-98.553768,30.099106],[-98.532351,30.073812],[-98.52965,30.07128],[-98.438585,29.966242],[-98.414018,29.937557],[-98.411638,29.939622],[-98.41034,29.940752],[-98.410135,29.940923],[-98.408388,29.942402],[-98.324933,30.014194],[-98.298118,30.037505],[-98.2976,30.037994],[-98.254522,30.007635],[-98.253898,30.007115],[-98.246305,30.001774],[-98.224261,29.986049],[-98.203141,29.97099],[-98.198953,29.967995],[-98.198395,29.967524],[-98.196608,29.96631],[-98.188144,29.960341],[-98.151587,29.934318],[-98.12127,29.912844],[-98.071531,29.877729],[-98.030523,29.848539],[-98.018682,29.812253],[-98.018657,29.812175],[-98.01518,29.801485],[-98.015044,29.801057],[-98.012943,29.794735],[-97.999271,29.752444],[-97.961814,29.789027],[-97.944572,29.805869],[-97.944471,29.806754],[-97.943564,29.806914],[-97.932916,29.81482],[-97.930509,29.816604],[-97.928116,29.818403],[-97.919255,29.825138],[-97.905297,29.835573],[-97.905173,29.835664],[-97.875259,29.858208],[-97.875228,29.858136],[-97.873044,29.855939],[-97.872196,29.852519],[-97.867493,29.851723],[-97.867167,29.854535],[-97.863718,29.856279],[-97.861442,29.855003],[-97.860939,29.853719],[-97.856203,29.848884],[-97.855533,29.843913],[-97.853701,29.843119],[-97.848635,29.843348],[-97.846645,29.841671],[-97.846104,29.839904],[-97.84484,29.839111],[-97.844253,29.836444],[-97.843898,29.832841],[-97.842349,29.832131],[-97.84131,29.83192],[-97.840744,29.829983],[-97.839334,29.828807],[-97.837614,29.828497],[-97.836691,29.82691],[-97.837141,29.824984],[-97.838342,29.825417],[-97.841549,29.824941],[-97.842704,29.824015],[-97.842202,29.821656],[-97.839747,29.820402],[-97.84075,29.815758],[-97.842283,29.81316],[-97.845221,29.811115],[-97.846362,29.808648],[-97.845413,29.807355],[-97.844842,29.808455],[-97.842414,29.808303],[-97.842007,29.806242],[-97.842254,29.802311],[-97.843181,29.801216],[-97.842351,29.799224],[-97.839808,29.797808],[-97.838504,29.797606],[-97.837997,29.79596],[-97.83686,29.795179],[-97.834393,29.794648],[-97.833524,29.795009],[-97.830265,29.795533],[-97.829484,29.793502],[-97.830043,29.789983],[-97.831349,29.787916],[-97.832374,29.784496],[-97.831398,29.783013],[-97.830501,29.781859],[-97.830146,29.780874],[-97.829259,29.779597],[-97.827653,29.779247],[-97.828902,29.780538],[-97.828535,29.781426],[-97.825102,29.781007],[-97.824086,29.781662],[-97.826317,29.783359],[-97.826233,29.784527],[-97.823274,29.785492],[-97.822654,29.784629],[-97.823997,29.783537],[-97.821837,29.782721],[-97.821379,29.785672],[-97.819566,29.78943],[-97.817138,29.790383],[-97.815393,29.788208],[-97.815121,29.787499],[-97.814724,29.785542],[-97.814341,29.784747],[-97.811953,29.783469],[-97.815102,29.780726],[-97.812931,29.778319],[-97.811371,29.780295],[-97.808214,29.779639],[-97.806253,29.777746],[-97.80565,29.777058],[-97.806462,29.775338],[-97.805234,29.773444],[-97.805892,29.773066],[-97.807969,29.774642],[-97.811171,29.774501],[-97.807056,29.768987],[-97.804898,29.767238],[-97.802115,29.766584],[-97.801214,29.767025],[-97.800194,29.765932],[-97.799745,29.763216],[-97.800872,29.759167],[-97.802978,29.758651],[-97.80382,29.757432],[-97.80302,29.756366],[-97.803979,29.754914],[-97.803416,29.753651],[-97.801361,29.754194],[-97.800848,29.75293],[-97.799678,29.752301],[-97.795925,29.752333],[-97.793971,29.752943],[-97.792916,29.754192],[-97.793271,29.757861],[-97.792683,29.759393],[-97.790921,29.75959],[-97.78638,29.760959],[-97.781616,29.759719],[-97.780917,29.759258],[-97.780503,29.758245],[-97.781724,29.757831],[-97.780383,29.756795],[-97.780228,29.754759],[-97.781237,29.752709],[-97.779464,29.748209],[-97.781127,29.748619],[-97.78204,29.747699],[-97.77772,29.747112],[-97.775123,29.7444],[-97.774002,29.743938],[-97.774364,29.742157],[-97.768764,29.74173],[-97.768234,29.74108],[-97.769976,29.739508],[-97.770699,29.737819],[-97.770212,29.735177],[-97.77096,29.732305],[-97.763739,29.727899],[-97.761873,29.728389],[-97.760691,29.727763],[-97.760808,29.725405],[-97.758601,29.725047],[-97.763536,29.721766],[-97.766466,29.721759],[-97.768333,29.720267],[-97.768459,29.719103],[-97.765661,29.717128],[-97.763364,29.713042],[-97.758627,29.715735],[-97.756548,29.717825],[-97.75294,29.716626],[-97.7519,29.71586],[-97.749984,29.714631],[-97.74772,29.714398],[-97.74665,29.712556],[-97.749654,29.711422],[-97.746091,29.711298],[-97.744933,29.71269],[-97.744108,29.711887],[-97.738369,29.712905],[-97.73677,29.711046],[-97.735942,29.705629],[-97.736996,29.701954],[-97.743347,29.698841],[-97.743629,29.697496],[-97.742698,29.69667],[-97.740339,29.696784],[-97.737992,29.696254],[-97.735409,29.693618],[-97.73572,29.691198],[-97.734592,29.691075],[-97.733415,29.690541],[-97.731985,29.690127],[-97.727576,29.687892],[-97.725625,29.685672],[-97.722104,29.68552],[-97.72145,29.684163],[-97.722852,29.682557],[-97.721852,29.682088],[-97.71764,29.684115],[-97.716759,29.683742],[-97.717737,29.682614],[-97.717215,29.681797],[-97.715574,29.682105],[-97.711705,29.6815],[-97.708451,29.683733],[-97.706378,29.682712],[-97.704558,29.682615],[-97.703855,29.681267],[-97.705641,29.680218],[-97.704784,29.679112],[-97.705862,29.67715],[-97.705317,29.675889],[-97.706075,29.67455],[-97.703849,29.674249],[-97.703299,29.673072],[-97.703421,29.670482],[-97.702197,29.670099],[-97.702229,29.668592],[-97.700536,29.668413],[-97.699477,29.667424],[-97.698305,29.666708],[-97.697325,29.667923],[-97.698284,29.669249],[-97.690701,29.673096],[-97.691617,29.672366],[-97.689791,29.671823],[-97.688301,29.672589],[-97.686128,29.669503],[-97.685188,29.667446],[-97.685326,29.666261],[-97.686587,29.667295],[-97.68723,29.666673],[-97.685813,29.665667],[-97.683864,29.666057],[-97.683594,29.66717],[-97.682072,29.665919],[-97.683823,29.664269],[-97.680498,29.663623],[-97.678484,29.664469],[-97.678368,29.666761],[-97.676575,29.667099],[-97.677592,29.668775],[-97.675933,29.668134],[-97.673878,29.668222],[-97.675135,29.666085],[-97.673466,29.663197],[-97.67117,29.664116],[-97.670864,29.667063],[-97.669162,29.66753],[-97.66591,29.666905],[-97.665209,29.668043],[-97.665002,29.668801],[-97.663366,29.666983],[-97.661045,29.668513],[-97.65939,29.666539],[-97.65865,29.663249],[-97.656462,29.662863],[-97.656849,29.664672],[-97.654005,29.666991],[-97.652612,29.667843],[-97.652236,29.666957],[-97.651902,29.666575],[-97.650073,29.665021],[-97.648983,29.662221],[-97.647785,29.662127],[-97.647921,29.658079],[-97.648672,29.656964],[-97.649648,29.657437],[-97.649106,29.659303],[-97.650141,29.661323],[-97.652225,29.66182],[-97.653627,29.659899],[-97.653219,29.658824],[-97.654344,29.658035],[-97.653559,29.656183],[-97.651895,29.655245],[-97.651654,29.653965],[-97.65035,29.655268],[-97.64771,29.654188],[-97.642885,29.654609],[-97.641661,29.652136],[-97.640492,29.651883],[-97.638997,29.653265],[-97.63794,29.653291],[-97.637444,29.654674],[-97.635627,29.655229],[-97.635269,29.653717],[-97.63102,29.653472],[-97.631432,29.650606],[-97.633176,29.649863],[-97.633504,29.649432],[-97.640024,29.640803],[-97.659757,29.614659],[-97.661368,29.612749],[-97.661801,29.611909],[-97.683924,29.582743],[-97.722534,29.531777],[-97.727647,29.525021],[-97.732981,29.518496],[-97.739639,29.509381],[-97.746306,29.50069],[-97.753818,29.488646],[-97.804618,29.423041],[-97.825607,29.395882],[-97.840125,29.37719],[-97.840383,29.376791],[-97.858782,29.35289],[-97.787643,29.281392],[-97.773308,29.266481],[-97.772508,29.265641],[-97.771334,29.264411],[-97.771082,29.26384],[-97.768831,29.261872],[-97.766999,29.259899],[-97.766439,29.259429],[-97.757701,29.250234],[-97.734087,29.227229],[-97.728443,29.221748],[-97.688995,29.18343],[-97.625298,29.121338],[-97.621438,29.117863],[-97.613132,29.109765],[-97.624957,29.100801],[-97.630208,29.098363],[-97.655712,29.079511],[-97.725691,29.028271],[-97.745589,29.013546],[-97.751977,29.009365],[-97.75511,29.007113],[-97.754691,29.006789],[-97.740474,28.991377],[-97.612614,28.854296],[-97.598366,28.838909],[-97.596965,28.83745],[-97.574639,28.8133],[-97.520667,28.852172],[-97.515197,28.856141],[-97.41734,28.925228],[-97.41137,28.925316],[-97.409217,28.923823],[-97.40644,28.92104],[-97.405594,28.92038],[-97.403126,28.916705],[-97.401719,28.915742],[-97.399244,28.916039],[-97.397133,28.919247],[-97.39419,28.919155],[-97.390544,28.917113],[-97.384579,28.916836],[-97.382417,28.915666],[-97.382732,28.911748],[-97.384141,28.907738],[-97.377995,28.904847],[-97.374603,28.904734],[-97.373456,28.904116],[-97.373533,28.901503],[-97.372229,28.899349],[-97.371474,28.899258],[-97.368271,28.900978],[-97.366214,28.900589],[-97.365379,28.898825],[-97.363269,28.896877],[-97.358972,28.896697],[-97.355404,28.897621],[-97.354855,28.896666],[-97.355359,28.893449],[-97.353057,28.891633],[-97.351703,28.892344],[-97.350089,28.894957],[-97.347277,28.894958],[-97.341287,28.895853],[-97.339985,28.895647],[-97.337614,28.892691],[-97.326676,28.885244],[-97.324436,28.882449],[-97.324201,28.881119],[-97.326076,28.877796],[-97.326284,28.876512],[-97.324978,28.874683],[-97.323379,28.875262],[-97.317483,28.87569],[-97.316624,28.876375],[-97.31238,28.878484],[-97.310821,28.87776],[-97.310276,28.876621],[-97.312626,28.872365],[-97.311695,28.869608],[-97.305916,28.864037],[-97.25058,28.905078],[-97.16055,28.97093],[-97.149062,28.979309],[-97.125266,28.996674],[-97.079925,29.03009],[-97.048955,29.052769],[-97.033188,29.064333],[-97.027012,29.068571],[-97.026013,29.068096],[-97.018425,29.073112],[-97.017219,29.074266],[-96.998517,29.087915],[-96.987281,29.09607],[-96.976378,29.104046],[-96.938587,29.063244],[-96.847554,29.12968],[-96.804151,29.160355],[-96.686128,29.243911],[-96.678413,29.249382],[-96.658466,29.263876],[-96.573182,29.326144],[-96.560555,29.335439],[-96.688914,29.467968],[-96.703613,29.483805],[-96.706155,29.486696],[-96.706877,29.487566],[-96.757798,29.54065],[-96.761287,29.544276],[-96.792988,29.577228],[-96.793132,29.577378],[-96.832812,29.576863],[-96.834794,29.579934],[-96.83653,29.580907],[-96.838745,29.583046],[-96.839287,29.585245],[-96.838947,29.586163],[-96.836311,29.588556],[-96.835765,29.592773],[-96.833362,29.595298],[-96.833324,29.595903],[-96.836112,29.598487],[-96.836873,29.598569],[-96.837566,29.60029],[-96.837931,29.603793],[-96.840354,29.605227],[-96.841261,29.607647],[-96.84428,29.609041],[-96.843564,29.611056],[-96.842338,29.612826],[-96.843131,29.61485],[-96.843213,29.61662],[-96.847348,29.61706],[-96.848953,29.618918],[-96.847242,29.620172],[-96.848029,29.620969],[-96.850987,29.621513],[-96.854581,29.623024],[-96.857136,29.62321],[-96.859144,29.624376],[-96.859075,29.626725],[-96.863085,29.628334],[-96.86289,29.629742],[-96.865566,29.630153],[-96.865969,29.630626],[-96.864996,29.632706],[-96.874222,29.632706],[-96.869116,29.637928],[-96.85044,29.657018],[-96.80789,29.700517],[-96.80637,29.702072],[-96.779939,29.729096],[-96.754346,29.755502],[-96.750254,29.758794],[-96.724737,29.784872],[-96.724337,29.785278],[-96.717043,29.792706],[-96.715154,29.795169],[-96.704342,29.806889],[-96.672926,29.843098],[-96.665151,29.852267],[-96.651189,29.868751],[-96.64608,29.873762],[-96.645289,29.875228],[-96.569844,29.961516],[-96.579504,29.97696],[-96.595676,30.002794],[-96.62198,30.044283],[-96.623863,30.066713],[-96.626018,30.067796],[-96.630847,30.070287],[-96.634289,30.075701],[-96.632478,30.08404],[-96.633186,30.092951],[-96.633673,30.106142],[-96.640649,30.120579],[-96.653112,30.12999],[-96.653062,30.13012],[-96.647223,30.145174],[-96.661872,30.149133],[-96.668606,30.149729],[-96.683394,30.151038],[-96.687141,30.16435],[-96.693755,30.161456],[-96.702002,30.157839],[-96.705462,30.154414],[-96.714989,30.144983],[-96.732136,30.147016],[-96.735445,30.147393],[-96.735967,30.147225],[-96.747229,30.144173],[-96.766937,30.138745],[-96.773016,30.149466],[-96.780751,30.152124],[-96.794552,30.160545],[-96.769037,30.178292],[-96.744026,30.195941],[-96.741508,30.19743],[-96.7418,30.199794],[-96.740567,30.201147],[-96.739909,30.203148],[-96.74005,30.205111],[-96.740696,30.205952],[-96.739848,30.206733],[-96.74112,30.207689],[-96.740697,30.208619],[-96.741451,30.210455],[-96.740597,30.212154],[-96.742041,30.212109],[-96.743308,30.214489],[-96.743987,30.21731],[-96.74362,30.218135],[-96.739981,30.22072],[-96.739057,30.222612],[-96.739767,30.223771],[-96.740944,30.223276],[-96.741679,30.224128],[-96.741364,30.226366],[-96.742535,30.226937],[-96.741922,30.22801],[-96.740213,30.228994],[-96.738466,30.231057],[-96.738821,30.232261],[-96.736972,30.231882],[-96.737178,30.233307],[-96.736359,30.23401],[-96.735556,30.236451],[-96.734075,30.239096],[-96.735228,30.239508],[-96.734069,30.240207],[-96.734513,30.241306],[-96.733215,30.241856],[-96.73191,30.243752],[-96.729321,30.243336],[-96.728821,30.244145],[-96.727839,30.243469],[-96.72651,30.243793],[-96.724921,30.246867],[-96.72337,30.245878],[-96.722015,30.246818],[-96.721996,30.24816],[-96.720995,30.24822],[-96.718437,30.25048],[-96.715037,30.249739],[-96.715024,30.250871],[-96.714181,30.250684],[-96.713852,30.248233],[-96.714276,30.247199],[-96.712478,30.247639],[-96.712142,30.246331],[-96.710882,30.245451],[-96.707532,30.245341],[-96.706626,30.244627],[-96.705753,30.245864],[-96.701573,30.247327],[-96.701422,30.248575],[-96.698059,30.249465],[-96.69678,30.249179],[-96.696564,30.250071],[-96.695279,30.249339],[-96.694727,30.250335],[-96.692993,30.248943],[-96.690922,30.248228],[-96.689567,30.24863],[-96.687104,30.248069],[-96.685672,30.248915],[-96.684126,30.250516],[-96.685709,30.252699],[-96.684563,30.252957],[-96.684316,30.254513],[-96.685272,30.256014],[-96.684373,30.257713],[-96.683024,30.258752],[-96.679864,30.259071],[-96.680041,30.260088],[-96.678996,30.261451],[-96.678882,30.263227],[-96.6779,30.263727],[-96.676722,30.266608],[-96.673605,30.266388],[-96.672104,30.267361],[-96.671071,30.269812],[-96.669697,30.271561],[-96.669988,30.273809],[-96.668689,30.275711],[-96.665407,30.277789],[-96.66492,30.277365],[-96.661499,30.278745],[-96.661783,30.279982],[-96.659523,30.282585],[-96.660068,30.285415],[-96.657895,30.287777],[-96.654218,30.287503],[-96.65316,30.289805],[-96.650383,30.29076],[-96.65044,30.291712],[-96.648396,30.292182],[-96.645684,30.291434],[-96.644208,30.293266],[-96.642229,30.29355],[-96.642044,30.295488],[-96.640883,30.296786],[-96.644572,30.296834],[-96.645483,30.29764],[-96.648251,30.298259],[-96.648689,30.300221],[-96.649209,30.299251],[-96.650649,30.29921],[-96.651327,30.300477],[-96.651884,30.299354],[-96.653919,30.29936],[-96.654653,30.300207],[-96.658573,30.299437],[-96.659724,30.298741],[-96.6595,30.297692],[-96.660903,30.298006],[-96.663716,30.295549],[-96.665789,30.29721],[-96.668269,30.297562],[-96.66921,30.300137],[-96.670427,30.300047],[-96.669565,30.303349],[-96.670912,30.302508],[-96.671293,30.303694],[-96.672967,30.30454],[-96.673803,30.303934],[-96.674974,30.305038],[-96.67325,30.306714],[-96.673497,30.307615],[-96.675981,30.307687],[-96.677921,30.309809],[-96.679254,30.30928],[-96.680516,30.309807],[-96.682428,30.309224],[-96.683466,30.311357],[-96.683884,30.31032],[-96.685493,30.3116],[-96.685241,30.312582],[-96.686359,30.314699],[-96.686855,30.317136],[-96.688163,30.317964],[-96.692077,30.318722],[-96.694682,30.320191],[-96.699522,30.320686],[-96.701198,30.319604],[-96.703089,30.320269],[-96.703704,30.319357],[-96.70569,30.31904],[-96.707051,30.317702],[-96.710085,30.318688],[-96.712166,30.318905],[-96.716357,30.320153],[-96.71814,30.318851],[-96.72194,30.31889],[-96.722675,30.320804],[-96.723736,30.320758],[-96.725811,30.32332],[-96.726977,30.323062],[-96.730407,30.32424],[-96.730891,30.323416],[-96.732943,30.323933],[-96.732266,30.322981],[-96.733618,30.322672],[-96.734441,30.323713],[-96.734412,30.322032],[-96.737784,30.320892],[-96.736671,30.319448],[-96.740542,30.318655],[-96.741281,30.319521],[-96.743672,30.319757],[-96.744682,30.320691],[-96.743513,30.321979],[-96.745207,30.321815],[-96.743956,30.323875],[-96.746485,30.326347],[-96.746969,30.325424],[-96.747643,30.327294],[-96.75081,30.327793],[-96.751527,30.329657],[-96.75305,30.329328],[-96.753435,30.330166],[-96.754414,30.329225],[-96.755078,30.330655],[-96.753973,30.331328],[-96.753516,30.334771],[-96.752865,30.338021],[-96.754398,30.340711],[-96.757206,30.340618],[-96.759095,30.339927],[-96.760692,30.340538],[-96.76116,30.342418],[-96.760247,30.343275],[-96.762489,30.346234],[-96.76382,30.3469],[-96.765136,30.35048],[-96.767487,30.353015],[-96.765756,30.353762],[-96.766744,30.35616],[-96.768575,30.357766],[-96.769707,30.362863],[-96.769858,30.364743],[-96.771297,30.366481],[-96.773268,30.367593],[-96.774916,30.369347],[-96.776419,30.369084],[-96.777223,30.371492],[-96.778301,30.37097],[-96.780539,30.372054],[-96.781426,30.37388],[-96.779686,30.375966],[-96.782254,30.37628],[-96.78434,30.378248],[-96.784118,30.37954],[-96.785228,30.3786],[-96.786191,30.37986],[-96.787643,30.380316],[-96.78725,30.381894],[-96.789697,30.383489],[-96.788162,30.38516],[-96.78846,30.386436],[-96.787147,30.387403],[-96.788307,30.387865],[-96.787616,30.388948],[-96.790114,30.390697],[-96.791795,30.390675],[-96.793689,30.391489],[-96.796405,30.391418],[-96.797211,30.39066],[-96.798948,30.391056],[-96.802506,30.394564],[-96.806438,30.396494],[-96.808258,30.396543],[-96.80947,30.399562],[-96.81082,30.401129],[-96.808898,30.402586],[-96.809825,30.404439],[-96.813453,30.404934],[-96.813358,30.405665],[-96.814937,30.405187],[-96.817772,30.406472],[-96.819117,30.407023],[-96.819333,30.408194],[-96.820709,30.409821],[-96.822448,30.410338],[-96.821763,30.412878],[-96.826076,30.414742],[-96.824586,30.41489],[-96.825195,30.416303],[-96.826464,30.416149],[-96.829553,30.418365],[-96.831133,30.417925],[-96.83166,30.419821],[-96.832713,30.420333],[-96.832484,30.418854],[-96.83395,30.41898],[-96.833588,30.419755],[-96.834756,30.421234],[-96.833836,30.421273],[-96.834553,30.422818],[-96.836266,30.422399],[-96.836279,30.421278],[-96.837338,30.421717],[-96.839457,30.420887],[-96.840834,30.422041],[-96.840454,30.424422],[-96.842446,30.424889],[-96.84185,30.426214],[-96.843721,30.425746],[-96.845568,30.427714],[-96.843773,30.428721],[-96.844167,30.429535],[-96.845651,30.429188],[-96.846242,30.431387],[-96.848399,30.431199],[-96.850182,30.429989],[-96.851667,30.43166],[-96.853025,30.43127],[-96.852974,30.432188],[-96.855671,30.432825],[-96.858241,30.434078],[-96.858672,30.433418],[-96.860912,30.433774],[-96.864547,30.432619],[-96.865677,30.43297],[-96.864846,30.43396],[-96.865354,30.434751],[-96.86807,30.433791],[-96.870678,30.435503],[-96.872413,30.439065],[-96.870859,30.441485],[-96.872466,30.444585],[-96.874999,30.445727],[-96.875518,30.446857],[-96.877111,30.447693],[-96.877275,30.449369],[-96.875707,30.448841],[-96.874062,30.44967],[-96.875414,30.450639],[-96.877109,30.450068],[-96.877076,30.451591],[-96.876085,30.452877],[-96.874965,30.453057],[-96.875754,30.4555],[-96.874593,30.456422],[-96.874822,30.457466],[-96.878113,30.457151],[-96.879687,30.458119],[-96.878747,30.459213],[-96.880854,30.459731],[-96.882287,30.461705],[-96.883956,30.461926],[-96.883982,30.460755],[-96.885785,30.459887],[-96.887003,30.460255],[-96.887358,30.461838],[-96.889726,30.460932],[-96.893985,30.459868],[-96.896054,30.460424],[-96.898555,30.459276],[-96.899843,30.460277],[-96.897983,30.461035],[-96.900109,30.461921],[-96.899943,30.463026],[-96.901631,30.464165],[-96.902112,30.46698],[-96.90462,30.466453],[-96.904371,30.468212],[-96.901915,30.468272],[-96.902137,30.469603],[-96.903108,30.469949],[-96.904523,30.469307],[-96.905793,30.470099],[-96.905449,30.472375],[-96.903938,30.473551],[-96.902819,30.477476],[-96.902678,30.479439],[-96.901897,30.481765],[-96.900671,30.481896],[-96.898042,30.483759],[-96.89681,30.484006],[-96.895889,30.486898],[-96.896675,30.488268],[-96.895906,30.489158],[-96.897398,30.489543],[-96.898089,30.492062],[-96.899833,30.495636],[-96.899274,30.496928],[-96.901635,30.499585],[-96.904147,30.500886],[-96.906369,30.501128],[-96.908699,30.501943],[-96.906312,30.503091],[-96.904272,30.50844],[-96.906061,30.512675],[-96.902956,30.512613],[-96.902231,30.514197],[-96.90279,30.514928],[-96.904638,30.514197],[-96.906422,30.514286],[-96.906543,30.515209],[-96.904625,30.515902],[-96.904236,30.518843],[-96.905602,30.518624],[-96.906402,30.516991],[-96.907971,30.517365],[-96.908802,30.520593],[-96.909125,30.52271],[-96.912383,30.523502],[-96.91176,30.525448],[-96.911899,30.527444],[-96.913423,30.528478],[-96.913086,30.530084],[-96.914439,30.530375],[-96.914312,30.531447],[-96.916343,30.535154],[-96.91842,30.537188],[-96.918902,30.539212],[-96.920661,30.539976],[-96.922224,30.539647],[-96.924155,30.541296],[-96.925705,30.543485],[-96.926988,30.54222],[-96.928499,30.544227],[-96.9297,30.544156],[-96.930056,30.54304],[-96.931434,30.543452],[-96.932965,30.542919],[-96.934204,30.543826],[-96.936859,30.544833],[-96.939203,30.545113],[-96.939299,30.546526],[-96.941649,30.546339],[-96.943243,30.546812],[-96.942888,30.545498],[-96.945276,30.543244],[-96.946814,30.54453],[-96.949107,30.54541],[-96.948205,30.546993],[-96.948999,30.54784],[-96.950886,30.547362],[-96.951794,30.548588],[-96.954132,30.549143],[-96.956,30.550655],[-96.956293,30.552062],[-96.957144,30.552326],[-96.959393,30.551385],[-96.961686,30.551819],[-96.963326,30.555465],[-96.96363,30.557198],[-97.051648,30.51156],[-97.085749,30.493669],[-97.126449,30.472532],[-97.13472,30.468137],[-97.155219,30.457344],[-97.162104,30.474156],[-97.164933,30.481016],[-97.214774,30.602328],[-97.215946,30.604411],[-97.217865,30.609256],[-97.218237,30.610253],[-97.218861,30.611883],[-97.220024,30.614839],[-97.22203,30.619935],[-97.226166,30.629707],[-97.236852,30.654725],[-97.236447,30.654855],[-97.252409,30.693473],[-97.269949,30.735362],[-97.27455,30.737071],[-97.307122,30.749306],[-97.315485,30.752363],[-97.328987,30.757347],[-97.331004,30.758234],[-97.356846,30.767807],[-97.359001,30.76873],[-97.373841,30.774281],[-97.375365,30.775307],[-97.38834,30.780257],[-97.402486,30.785582],[-97.419175,30.79199],[-97.419373,30.792068],[-97.444918,30.801752],[-97.460436,30.807676],[-97.513067,30.827711],[-97.54002,30.838003],[-97.550732,30.842112],[-97.589397,30.85681],[-97.624051,30.870004],[-97.625279,30.870189],[-97.6803,30.879085],[-97.705432,30.883471],[-97.72987,30.887623],[-97.773835,30.895094],[-97.800349,30.89963],[-97.8281,30.904414],[-97.829882,30.909521],[-97.840365,30.929318],[-97.862892,30.96481],[-97.863334,30.96548],[-97.866426,30.96942],[-97.874351,30.981626],[-97.875544,30.983767],[-97.886578,31.001664],[-97.889944,31.006071],[-97.906166,31.027603],[-97.911689,31.035009],[-97.94179,31.034609],[-97.997137,31.034085],[-98.000301,31.033869],[-98.09965,31.03289],[-98.10033,31.03292],[-98.138905,31.032298],[-98.164029,31.032057],[-98.19379,31.03181],[-98.194327,31.031766],[-98.225219,31.0315],[-98.243709,31.0313],[-98.269378,31.031062],[-98.293908,31.030819],[-98.339248,31.030383],[-98.439711,31.029647],[-98.4394,31.028241],[-98.439528,31.025125],[-98.440293,31.023184],[-98.442327,31.020476],[-98.445604,31.018051],[-98.448291,31.016703],[-98.451725,31.015449],[-98.456954,31.013157],[-98.458745,31.011545],[-98.459241,31.010378],[-98.459235,31.007745],[-98.458546,31.006184],[-98.456621,31.003564],[-98.453146,30.99957],[-98.446185,30.992898],[-98.442576,30.98619],[-98.441874,30.984324],[-98.442154,30.982496],[-98.443229,30.979735],[-98.450734,30.971628],[-98.452203,30.970227],[-98.452897,30.968727],[-98.452796,30.964399],[-98.450534,30.958646],[-98.447098,30.951755],[-98.445875,30.950697],[-98.441977,30.949645],[-98.434255,30.94891],[-98.427553,30.948689],[-98.424688,30.948376],[-98.419838,30.9468],[-98.416033,30.944851],[-98.414864,30.943479],[-98.414508,30.94211],[-98.416826,30.931963],[-98.417137,30.929546],[-98.418746,30.92626],[-98.419606,30.925352],[-98.422331,30.924259],[-98.429207,30.926435],[-98.435122,30.927104],[-98.440202,30.92652],[-98.441898,30.925865],[-98.444599,30.923109],[-98.445782,30.921439],[-98.448077,30.921556],[-98.500327,30.921949],[-98.51552,30.921843],[-98.516771,30.922042],[-98.517683,30.922048],[-98.523681,30.922121],[-98.529989,30.92175],[-98.557512,30.921998],[-98.624386,30.921779],[-98.625865,30.921892],[-98.747007,30.920871],[-98.750312,30.920343],[-98.870309,30.921097],[-98.875437,30.920744],[-98.963716,30.921387],[-98.964612,30.921368],[-98.9778,30.921447],[-99.033478,30.921788],[-99.092431,30.921968],[-99.092317,30.941002],[-99.125338,30.940868],[-99.1568,30.941076],[-99.187577,30.941066],[-99.222448,30.94105],[-99.247927,30.941044],[-99.25033,30.941186],[-99.28256,30.941028],[-99.299925,30.940947],[-99.312517,30.940888],[-99.373991,30.94102],[-99.375337,30.940684],[-99.387423,30.940666],[-99.484755,30.940605]]]}}]}
