{"type":"FeatureCollection","features":[{"type":"Feature","properties":{"geoid":"48021","county_name":"Bastrop","label":"Bastrop County","land_area_sq_km":2300.5,"source":"U.S. Census Bureau 2025 Cartographic Boundary File"},"geometry":{"type":"Polygon","coordinates":[[[-97.639208,30.07829],[-97.633654,30.08306],[-97.626132,30.090041],[-97.625049,30.090801],[-97.614227,30.10046],[-97.610779,30.10275],[-97.609749,30.103447],[-97.579723,30.130804],[-97.57632,30.133712],[-97.567998,30.141458],[-97.566048,30.143144],[-97.529459,30.176339],[-97.529228,30.176525],[-97.526468,30.179189],[-97.516331,30.188253],[-97.492482,30.210011],[-97.491254,30.21211],[-97.490138,30.214065],[-97.486329,30.220528],[-97.48042,30.230615],[-97.472771,30.243893],[-97.469756,30.249274],[-97.462,30.261747],[-97.460874,30.264446],[-97.450426,30.282321],[-97.446356,30.289243],[-97.445332,30.290984],[-97.425697,30.324398],[-97.413962,30.344361],[-97.409837,30.351394],[-97.409393,30.35215],[-97.402308,30.364156],[-97.400089,30.367906],[-97.383184,30.396835],[-97.377227,30.407086],[-97.374866,30.410806],[-97.369539,30.419563],[-97.334463,30.402843],[-97.291599,30.382093],[-97.282434,30.377706],[-97.279958,30.376315],[-97.263056,30.36827],[-97.258727,30.366191],[-97.251707,30.362848],[-97.218153,30.34671],[-97.198914,30.337448],[-97.158811,30.310695],[-97.137225,30.296294],[-97.136284,30.295667],[-97.114505,30.281159],[-97.102499,30.273082],[-97.081834,30.259357],[-97.080719,30.255364],[-97.079936,30.252484],[-97.073527,30.22953],[-97.063361,30.192943],[-97.059188,30.178064],[-97.04821,30.137947],[-97.024461,30.051435],[-97.044335,30.033192],[-97.044365,30.033151],[-97.086458,29.994298],[-97.106961,29.97543],[-97.107179,29.975232],[-97.121134,29.962585],[-97.128501,29.956473],[-97.130912,29.95406],[-97.14403,29.942245],[-97.165346,29.922973],[-97.194235,29.896776],[-97.221837,29.871837],[-97.315823,29.786541],[-97.351652,29.816916],[-97.357699,29.821797],[-97.3854,29.844933],[-97.38711,29.846218],[-97.388679,29.847681],[-97.437947,29.889215],[-97.459932,29.907784],[-97.500786,29.942069],[-97.537526,29.97317],[-97.547848,29.982056],[-97.548432,29.982401],[-97.548882,29.982782],[-97.568191,29.999128],[-97.573121,30.002909],[-97.594945,30.021647],[-97.622756,30.045524],[-97.623654,30.046175],[-97.630459,30.051725],[-97.630771,30.05198],[-97.632632,30.053551],[-97.637796,30.058194],[-97.64937,30.067944],[-97.639208,30.07829]]]}},{"type":"Feature","properties":{"geoid":"48031","county_name":"Blanco","label":"Blanco County","land_area_sq_km":1836.95,"source":"U.S. Census Bureau 2025 Cartographic Boundary File"},"geometry":{"type":"Polygon","coordinates":[[[-98.59167,30.499875],[-98.456624,30.501741],[-98.438905,30.501862],[-98.411462,30.502095],[-98.400964,30.499589],[-98.397203,30.498571],[-98.377213,30.493143],[-98.351041,30.486096],[-98.321764,30.478249],[-98.321421,30.478157],[-98.320375,30.477877],[-98.250297,30.459454],[-98.249457,30.45889],[-98.125556,30.426186],[-98.127988,30.422625],[-98.128983,30.421135],[-98.159266,30.376651],[-98.172977,30.356312],[-98.178641,30.342335],[-98.179915,30.338771],[-98.181999,30.333927],[-98.182836,30.331992],[-98.182844,30.331952],[-98.206532,30.271324],[-98.226625,30.219432],[-98.23676,30.193501],[-98.259241,30.136542],[-98.263446,30.126141],[-98.270843,30.106737],[-98.287065,30.065073],[-98.294174,30.046801],[-98.2976,30.037994],[-98.298118,30.037505],[-98.324933,30.014194],[-98.408388,29.942402],[-98.410135,29.940923],[-98.41034,29.940752],[-98.411638,29.939622],[-98.414018,29.937557],[-98.438585,29.966242],[-98.52965,30.07128],[-98.532351,30.073812],[-98.553768,30.099106],[-98.587897,30.138954],[-98.587892,30.149087],[-98.587868,30.185947],[-98.587864,30.205381],[-98.588,30.246296],[-98.588988,30.312159],[-98.59167,30.499875]]]}},{"type":"Feature","properties":{"geoid":"48053","county_name":"Burnet","label":"Burnet County","land_area_sq_km":2576.64,"source":"U.S. Census Bureau 2025 Cartographic Boundary File"},"geometry":{"type":"Polygon","coordinates":[[[-98.459241,31.010378],[-98.458745,31.011545],[-98.456954,31.013157],[-98.451725,31.015449],[-98.448291,31.016703],[-98.445604,31.018051],[-98.442327,31.020476],[-98.440293,31.023184],[-98.439528,31.025125],[-98.4394,31.028241],[-98.439711,31.029647],[-98.339248,31.030383],[-98.293908,31.030819],[-98.269378,31.031062],[-98.243709,31.0313],[-98.225219,31.0315],[-98.194327,31.031766],[-98.19379,31.03181],[-98.164029,31.032057],[-98.138905,31.032298],[-98.10033,31.03292],[-98.09965,31.03289],[-98.000301,31.033869],[-97.997137,31.034085],[-97.94179,31.034609],[-97.911689,31.035009],[-97.906166,31.027603],[-97.889944,31.006071],[-97.886578,31.001664],[-97.875544,30.983767],[-97.874351,30.981626],[-97.866426,30.96942],[-97.863334,30.96548],[-97.862892,30.96481],[-97.840365,30.929318],[-97.829882,30.909521],[-97.8281,30.904414],[-97.874816,30.863467],[-97.879144,30.859907],[-97.892834,30.847839],[-97.903179,30.838749],[-97.90297,30.838243],[-97.904133,30.837886],[-97.906202,30.836002],[-97.939554,30.806541],[-97.945436,30.801309],[-97.96286,30.785641],[-97.974361,30.764553],[-97.997996,30.720209],[-98.003491,30.710043],[-98.030344,30.660451],[-98.049886,30.624155],[-98.056743,30.611385],[-98.066559,30.593103],[-98.072933,30.581236],[-98.074918,30.577538],[-98.101262,30.528485],[-98.116386,30.500194],[-98.116867,30.498705],[-98.123126,30.487041],[-98.123111,30.484723],[-98.118165,30.484793],[-98.113723,30.485576],[-98.110557,30.490909],[-98.108284,30.493576],[-98.105919,30.49534],[-98.100861,30.497463],[-98.097793,30.497442],[-98.097709,30.467626],[-98.100599,30.463115],[-98.103164,30.459695],[-98.107733,30.452705],[-98.125481,30.426164],[-98.125556,30.426186],[-98.249457,30.45889],[-98.250297,30.459454],[-98.320375,30.477877],[-98.321421,30.478157],[-98.321764,30.478249],[-98.351041,30.486096],[-98.351162,30.512487],[-98.351517,30.51719],[-98.35152,30.517303],[-98.351907,30.543822],[-98.351931,30.548087],[-98.351982,30.558084],[-98.352057,30.558472],[-98.364288,30.571592],[-98.366816,30.573292],[-98.370311,30.574438],[-98.375946,30.573894],[-98.381343,30.570976],[-98.386876,30.568647],[-98.387864,30.56834],[-98.390198,30.567787],[-98.397536,30.564083],[-98.399914,30.563604],[-98.402904,30.563968],[-98.404086,30.564868],[-98.408172,30.569671],[-98.410599,30.573589],[-98.411148,30.574644],[-98.413089,30.581562],[-98.413705,30.58378],[-98.413699,30.585921],[-98.412445,30.587711],[-98.40806,30.590432],[-98.402397,30.593178],[-98.400696,30.594644],[-98.400132,30.596178],[-98.399996,30.597305],[-98.400736,30.599784],[-98.403242,30.603694],[-98.406002,30.606894],[-98.410551,30.613758],[-98.411928,30.616419],[-98.417595,30.627274],[-98.41834,30.629922],[-98.418442,30.633005],[-98.417097,30.638706],[-98.417387,30.643248],[-98.417908,30.644794],[-98.418594,30.645926],[-98.423083,30.650051],[-98.428113,30.653978],[-98.4289,30.655012],[-98.429043,30.65567],[-98.428552,30.657893],[-98.428352,30.66073],[-98.429512,30.661806],[-98.433284,30.662809],[-98.439087,30.66251],[-98.441124,30.664818],[-98.441759,30.666352],[-98.441643,30.669157],[-98.440462,30.671723],[-98.438995,30.673285],[-98.434883,30.674205],[-98.430115,30.675138],[-98.428154,30.67503],[-98.424812,30.674179],[-98.419899,30.674273],[-98.416862,30.675362],[-98.413432,30.675913],[-98.407776,30.67502],[-98.405014,30.675642],[-98.402916,30.677359],[-98.402176,30.680794],[-98.404888,30.68782],[-98.40546,30.690226],[-98.407738,30.694563],[-98.409941,30.697331],[-98.414001,30.701834],[-98.414436,30.702959],[-98.413962,30.704392],[-98.410448,30.707891],[-98.409073,30.710403],[-98.408603,30.71309],[-98.407708,30.716541],[-98.404152,30.721083],[-98.402107,30.72184],[-98.397476,30.721252],[-98.392654,30.721233],[-98.390656,30.722862],[-98.388412,30.725673],[-98.385521,30.730331],[-98.385037,30.730773],[-98.376249,30.737055],[-98.374062,30.738295],[-98.371905,30.740485],[-98.371628,30.742922],[-98.374076,30.745735],[-98.375237,30.746574],[-98.379555,30.747374],[-98.384781,30.746143],[-98.391408,30.746034],[-98.394249,30.746489],[-98.397793,30.748269],[-98.400156,30.75022],[-98.406853,30.751492],[-98.411769,30.751496],[-98.414504,30.751957],[-98.41577,30.75181],[-98.418248,30.751282],[-98.42234,30.750463],[-98.424046,30.750507],[-98.42663,30.751527],[-98.428956,30.754272],[-98.43029,30.757783],[-98.430214,30.76096],[-98.42923,30.763807],[-98.426907,30.767828],[-98.424355,30.77033],[-98.42289,30.773052],[-98.422714,30.776054],[-98.42485,30.778938],[-98.42971,30.783209],[-98.432098,30.78631],[-98.432543,30.78858],[-98.431996,30.790436],[-98.428482,30.79394],[-98.425045,30.795658],[-98.419941,30.7953],[-98.415596,30.79427],[-98.412552,30.794991],[-98.411224,30.796371],[-98.409721,30.799131],[-98.408958,30.80162],[-98.408653,30.80732],[-98.408159,30.809008],[-98.405434,30.813951],[-98.404948,30.815745],[-98.403336,30.817936],[-98.400887,30.818901],[-98.395378,30.818176],[-98.390053,30.818436],[-98.387627,30.819347],[-98.383899,30.822005],[-98.380074,30.825998],[-98.377595,30.829507],[-98.376811,30.831875],[-98.376877,30.83489],[-98.379578,30.837223],[-98.381371,30.838202],[-98.388229,30.840576],[-98.393646,30.84296],[-98.397636,30.843813],[-98.401384,30.843996],[-98.404977,30.843823],[-98.405769,30.842984],[-98.406903,30.839051],[-98.408851,30.836559],[-98.412468,30.835114],[-98.415718,30.834728],[-98.421593,30.834997],[-98.422089,30.835646],[-98.422211,30.83923],[-98.421026,30.845025],[-98.419632,30.850876],[-98.41935,30.859121],[-98.420738,30.862213],[-98.422365,30.864188],[-98.426871,30.867293],[-98.431557,30.869432],[-98.434113,30.870127],[-98.437782,30.870567],[-98.445867,30.870327],[-98.448326,30.870588],[-98.45079,30.871435],[-98.452493,30.87231],[-98.454299,30.874199],[-98.456352,30.876455],[-98.457382,30.878897],[-98.457207,30.881147],[-98.456436,30.883095],[-98.454178,30.885838],[-98.449493,30.889439],[-98.448753,30.890335],[-98.448471,30.892838],[-98.449356,30.896605],[-98.449463,30.903162],[-98.449173,30.907026],[-98.44833,30.911841],[-98.447322,30.917073],[-98.445782,30.921439],[-98.444599,30.923109],[-98.441898,30.925865],[-98.440202,30.92652],[-98.435122,30.927104],[-98.429207,30.926435],[-98.422331,30.924259],[-98.419606,30.925352],[-98.418746,30.92626],[-98.417137,30.929546],[-98.416826,30.931963],[-98.414508,30.94211],[-98.414864,30.943479],[-98.416033,30.944851],[-98.419838,30.9468],[-98.424688,30.948376],[-98.427553,30.948689],[-98.434255,30.94891],[-98.441977,30.949645],[-98.445875,30.950697],[-98.447098,30.951755],[-98.450534,30.958646],[-98.452796,30.964399],[-98.452897,30.968727],[-98.452203,30.970227],[-98.450734,30.971628],[-98.443229,30.979735],[-98.442154,30.982496],[-98.441874,30.984324],[-98.442576,30.98619],[-98.446185,30.992898],[-98.453146,30.99957],[-98.456621,31.003564],[-98.458546,31.006184],[-98.459235,31.007745],[-98.459241,31.010378]]]}},{"type":"Feature","properties":{"geoid":"48055","county_name":"Caldwell","label":"Caldwell County","land_area_sq_km":1410.36,"source":"U.S. Census Bureau 2025 Cartographic Boundary File"},"geometry":{"type":"Polygon","coordinates":[[[-97.899289,29.857811],[-97.896927,29.865041],[-97.896148,29.870648],[-97.895576,29.874265],[-97.895526,29.875786],[-97.894531,29.881588],[-97.894637,29.882143],[-97.893896,29.883734],[-97.891146,29.88563],[-97.89016,29.886324],[-97.88112,29.893414],[-97.869594,29.901771],[-97.863838,29.905838],[-97.863197,29.90629],[-97.857523,29.910299],[-97.849178,29.916],[-97.83661,29.922282],[-97.828346,29.928409],[-97.822913,29.931628],[-97.820414,29.933026],[-97.817839,29.934427],[-97.813085,29.936688],[-97.803452,29.941241],[-97.800135,29.942247],[-97.79435,29.944369],[-97.793074,29.944833],[-97.792593,29.945057],[-97.792435,29.945177],[-97.790334,29.947845],[-97.788541,29.95375],[-97.786848,29.956036],[-97.78581,29.957198],[-97.777944,29.962641],[-97.776916,29.963475],[-97.774639,29.966517],[-97.77474,29.967494],[-97.770166,29.973162],[-97.765594,29.978837],[-97.760705,29.988119],[-97.760283,29.988411],[-97.759544,29.988923],[-97.758759,29.989527],[-97.75738,29.990269],[-97.756988,29.99048],[-97.755566,29.991877],[-97.753205,29.994021],[-97.749592,29.995752],[-97.749201,29.99593],[-97.748145,29.99583],[-97.746813,29.995798],[-97.715806,30.018237],[-97.71554,30.018427],[-97.712548,30.020613],[-97.709922,30.022596],[-97.70879,30.023451],[-97.707765,30.024059],[-97.702022,30.028652],[-97.691179,30.038159],[-97.690084,30.03912],[-97.689207,30.039892],[-97.686398,30.042353],[-97.685377,30.043259],[-97.662656,30.063573],[-97.661279,30.064804],[-97.653693,30.071564],[-97.651094,30.069575],[-97.64937,30.067944],[-97.637796,30.058194],[-97.632632,30.053551],[-97.630771,30.05198],[-97.630459,30.051725],[-97.623654,30.046175],[-97.622756,30.045524],[-97.594945,30.021647],[-97.573121,30.002909],[-97.568191,29.999128],[-97.548882,29.982782],[-97.548432,29.982401],[-97.547848,29.982056],[-97.537526,29.97317],[-97.500786,29.942069],[-97.459932,29.907784],[-97.437947,29.889215],[-97.388679,29.847681],[-97.38711,29.846218],[-97.3854,29.844933],[-97.357699,29.821797],[-97.351652,29.816916],[-97.315823,29.786541],[-97.317893,29.784658],[-97.409777,29.734258],[-97.451439,29.711354],[-97.511442,29.678372],[-97.595145,29.632185],[-97.597695,29.630745],[-97.599632,29.631176],[-97.599947,29.632367],[-97.598583,29.633651],[-97.598629,29.635155],[-97.600368,29.635713],[-97.60003,29.637613],[-97.602272,29.63954],[-97.603731,29.641786],[-97.606368,29.640434],[-97.604644,29.63648],[-97.60585,29.635093],[-97.607492,29.635401],[-97.609104,29.636994],[-97.611885,29.636879],[-97.615969,29.634898],[-97.617497,29.633553],[-97.618456,29.633809],[-97.618836,29.635547],[-97.617894,29.63688],[-97.618077,29.637931],[-97.61674,29.639421],[-97.616242,29.641117],[-97.617161,29.64318],[-97.617477,29.645105],[-97.621229,29.644026],[-97.62199,29.642948],[-97.624692,29.642993],[-97.628168,29.642304],[-97.627676,29.640225],[-97.629429,29.639783],[-97.630188,29.643199],[-97.629951,29.644413],[-97.631131,29.645606],[-97.630369,29.64682],[-97.631707,29.646614],[-97.633879,29.647507],[-97.632965,29.648884],[-97.633176,29.649863],[-97.631432,29.650606],[-97.63102,29.653472],[-97.635269,29.653717],[-97.635627,29.655229],[-97.637444,29.654674],[-97.63794,29.653291],[-97.638997,29.653265],[-97.640492,29.651883],[-97.641661,29.652136],[-97.642885,29.654609],[-97.64771,29.654188],[-97.65035,29.655268],[-97.651654,29.653965],[-97.651895,29.655245],[-97.653559,29.656183],[-97.654344,29.658035],[-97.653219,29.658824],[-97.653627,29.659899],[-97.652225,29.66182],[-97.650141,29.661323],[-97.649106,29.659303],[-97.649648,29.657437],[-97.648672,29.656964],[-97.647921,29.658079],[-97.647785,29.662127],[-97.648983,29.662221],[-97.650073,29.665021],[-97.651902,29.666575],[-97.652236,29.666957],[-97.652612,29.667843],[-97.654005,29.666991],[-97.656849,29.664672],[-97.656462,29.662863],[-97.65865,29.663249],[-97.65939,29.666539],[-97.661045,29.668513],[-97.663366,29.666983],[-97.665002,29.668801],[-97.665209,29.668043],[-97.66591,29.666905],[-97.669162,29.66753],[-97.670864,29.667063],[-97.67117,29.664116],[-97.673466,29.663197],[-97.675135,29.666085],[-97.673878,29.668222],[-97.675933,29.668134],[-97.677592,29.668775],[-97.676575,29.667099],[-97.678368,29.666761],[-97.678484,29.664469],[-97.680498,29.663623],[-97.683823,29.664269],[-97.682072,29.665919],[-97.683594,29.66717],[-97.683864,29.666057],[-97.685813,29.665667],[-97.68723,29.666673],[-97.686587,29.667295],[-97.685326,29.666261],[-97.685188,29.667446],[-97.686128,29.669503],[-97.688301,29.672589],[-97.689791,29.671823],[-97.691617,29.672366],[-97.690701,29.673096],[-97.698284,29.669249],[-97.697325,29.667923],[-97.698305,29.666708],[-97.699477,29.667424],[-97.700536,29.668413],[-97.702229,29.668592],[-97.702197,29.670099],[-97.703421,29.670482],[-97.703299,29.673072],[-97.703849,29.674249],[-97.706075,29.67455],[-97.705317,29.675889],[-97.705862,29.67715],[-97.704784,29.679112],[-97.705641,29.680218],[-97.703855,29.681267],[-97.704558,29.682615],[-97.706378,29.682712],[-97.708451,29.683733],[-97.711705,29.6815],[-97.715574,29.682105],[-97.717215,29.681797],[-97.717737,29.682614],[-97.716759,29.683742],[-97.71764,29.684115],[-97.721852,29.682088],[-97.722852,29.682557],[-97.72145,29.684163],[-97.722104,29.68552],[-97.725625,29.685672],[-97.727576,29.687892],[-97.731985,29.690127],[-97.733415,29.690541],[-97.734592,29.691075],[-97.73572,29.691198],[-97.735409,29.693618],[-97.737992,29.696254],[-97.740339,29.696784],[-97.742698,29.69667],[-97.743629,29.697496],[-97.743347,29.698841],[-97.736996,29.701954],[-97.735942,29.705629],[-97.73677,29.711046],[-97.738369,29.712905],[-97.744108,29.711887],[-97.744933,29.71269],[-97.746091,29.711298],[-97.749654,29.711422],[-97.74665,29.712556],[-97.74772,29.714398],[-97.749984,29.714631],[-97.7519,29.71586],[-97.75294,29.716626],[-97.756548,29.717825],[-97.758627,29.715735],[-97.763364,29.713042],[-97.765661,29.717128],[-97.768459,29.719103],[-97.768333,29.720267],[-97.766466,29.721759],[-97.763536,29.721766],[-97.758601,29.725047],[-97.760808,29.725405],[-97.760691,29.727763],[-97.761873,29.728389],[-97.763739,29.727899],[-97.77096,29.732305],[-97.770212,29.735177],[-97.770699,29.737819],[-97.769976,29.739508],[-97.768234,29.74108],[-97.768764,29.74173],[-97.774364,29.742157],[-97.774002,29.743938],[-97.775123,29.7444],[-97.77772,29.747112],[-97.78204,29.747699],[-97.781127,29.748619],[-97.779464,29.748209],[-97.781237,29.752709],[-97.780228,29.754759],[-97.780383,29.756795],[-97.781724,29.757831],[-97.780503,29.758245],[-97.780917,29.759258],[-97.781616,29.759719],[-97.78638,29.760959],[-97.790921,29.75959],[-97.792683,29.759393],[-97.793271,29.757861],[-97.792916,29.754192],[-97.793971,29.752943],[-97.795925,29.752333],[-97.799678,29.752301],[-97.800848,29.75293],[-97.801361,29.754194],[-97.803416,29.753651],[-97.803979,29.754914],[-97.80302,29.756366],[-97.80382,29.757432],[-97.802978,29.758651],[-97.800872,29.759167],[-97.799745,29.763216],[-97.800194,29.765932],[-97.801214,29.767025],[-97.802115,29.766584],[-97.804898,29.767238],[-97.807056,29.768987],[-97.811171,29.774501],[-97.807969,29.774642],[-97.805892,29.773066],[-97.805234,29.773444],[-97.806462,29.775338],[-97.80565,29.777058],[-97.806253,29.777746],[-97.808214,29.779639],[-97.811371,29.780295],[-97.812931,29.778319],[-97.815102,29.780726],[-97.811953,29.783469],[-97.814341,29.784747],[-97.814724,29.785542],[-97.815121,29.787499],[-97.815393,29.788208],[-97.817138,29.790383],[-97.819566,29.78943],[-97.821379,29.785672],[-97.821837,29.782721],[-97.823997,29.783537],[-97.822654,29.784629],[-97.823274,29.785492],[-97.826233,29.784527],[-97.826317,29.783359],[-97.824086,29.781662],[-97.825102,29.781007],[-97.828535,29.781426],[-97.828902,29.780538],[-97.827653,29.779247],[-97.829259,29.779597],[-97.830146,29.780874],[-97.830501,29.781859],[-97.831398,29.783013],[-97.832374,29.784496],[-97.831349,29.787916],[-97.830043,29.789983],[-97.829484,29.793502],[-97.830265,29.795533],[-97.833524,29.795009],[-97.834393,29.794648],[-97.83686,29.795179],[-97.837997,29.79596],[-97.838504,29.797606],[-97.839808,29.797808],[-97.842351,29.799224],[-97.843181,29.801216],[-97.842254,29.802311],[-97.842007,29.806242],[-97.842414,29.808303],[-97.844842,29.808455],[-97.845413,29.807355],[-97.846362,29.808648],[-97.845221,29.811115],[-97.842283,29.81316],[-97.84075,29.815758],[-97.839747,29.820402],[-97.842202,29.821656],[-97.842704,29.824015],[-97.841549,29.824941],[-97.838342,29.825417],[-97.837141,29.824984],[-97.836691,29.82691],[-97.837614,29.828497],[-97.839334,29.828807],[-97.840744,29.829983],[-97.84131,29.83192],[-97.842349,29.832131],[-97.843898,29.832841],[-97.844253,29.836444],[-97.84484,29.839111],[-97.846104,29.839904],[-97.846645,29.841671],[-97.848635,29.843348],[-97.853701,29.843119],[-97.855533,29.843913],[-97.856203,29.848884],[-97.860939,29.853719],[-97.861442,29.855003],[-97.863718,29.856279],[-97.867167,29.854535],[-97.867493,29.851723],[-97.872196,29.852519],[-97.873044,29.855939],[-97.875228,29.858136],[-97.875259,29.858208],[-97.87456,29.8595],[-97.874819,29.860076],[-97.875281,29.860293],[-97.876014,29.860555],[-97.876293,29.860571],[-97.879105,29.86074],[-97.880983,29.860832],[-97.884348,29.862461],[-97.886084,29.862095],[-97.8874,29.858658],[-97.888821,29.856779],[-97.892818,29.856528],[-97.896768,29.857078],[-97.898668,29.857106],[-97.899289,29.857811]]]}},{"type":"Feature","properties":{"geoid":"48123","county_name":"DeWitt","label":"DeWitt County","land_area_sq_km":2354.24,"source":"U.S. Census Bureau 2025 Cartographic Boundary File"},"geometry":{"type":"Polygon","coordinates":[[[-97.75511,29.007113],[-97.751977,29.009365],[-97.745589,29.013546],[-97.725691,29.028271],[-97.655712,29.079511],[-97.630208,29.098363],[-97.624957,29.100801],[-97.613132,29.109765],[-97.603331,29.11738],[-97.600988,29.118938],[-97.556513,29.152313],[-97.450564,29.230813],[-97.444486,29.235217],[-97.379051,29.282973],[-97.33368,29.316167],[-97.289155,29.34871],[-97.253742,29.374662],[-97.240108,29.384488],[-97.202696,29.345587],[-97.160889,29.302216],[-97.158192,29.299429],[-97.150111,29.291022],[-97.148614,29.289446],[-97.145644,29.286276],[-97.137164,29.277453],[-97.128959,29.268925],[-97.110894,29.250248],[-96.996259,29.125253],[-96.995426,29.124612],[-96.981541,29.109621],[-96.976378,29.104046],[-96.987281,29.09607],[-96.998517,29.087915],[-97.017219,29.074266],[-97.018425,29.073112],[-97.026013,29.068096],[-97.027012,29.068571],[-97.033188,29.064333],[-97.048955,29.052769],[-97.079925,29.03009],[-97.125266,28.996674],[-97.149062,28.979309],[-97.16055,28.97093],[-97.25058,28.905078],[-97.305916,28.864037],[-97.311695,28.869608],[-97.312626,28.872365],[-97.310276,28.876621],[-97.310821,28.87776],[-97.31238,28.878484],[-97.316624,28.876375],[-97.317483,28.87569],[-97.323379,28.875262],[-97.324978,28.874683],[-97.326284,28.876512],[-97.326076,28.877796],[-97.324201,28.881119],[-97.324436,28.882449],[-97.326676,28.885244],[-97.337614,28.892691],[-97.339985,28.895647],[-97.341287,28.895853],[-97.347277,28.894958],[-97.350089,28.894957],[-97.351703,28.892344],[-97.353057,28.891633],[-97.355359,28.893449],[-97.354855,28.896666],[-97.355404,28.897621],[-97.358972,28.896697],[-97.363269,28.896877],[-97.365379,28.898825],[-97.366214,28.900589],[-97.368271,28.900978],[-97.371474,28.899258],[-97.372229,28.899349],[-97.373533,28.901503],[-97.373456,28.904116],[-97.374603,28.904734],[-97.377995,28.904847],[-97.384141,28.907738],[-97.382732,28.911748],[-97.382417,28.915666],[-97.384579,28.916836],[-97.390544,28.917113],[-97.39419,28.919155],[-97.397133,28.919247],[-97.399244,28.916039],[-97.401719,28.915742],[-97.403126,28.916705],[-97.405594,28.92038],[-97.40644,28.92104],[-97.409217,28.923823],[-97.41137,28.925316],[-97.41734,28.925228],[-97.515197,28.856141],[-97.520667,28.852172],[-97.574639,28.8133],[-97.596965,28.83745],[-97.598366,28.838909],[-97.612614,28.854296],[-97.740474,28.991377],[-97.754691,29.006789],[-97.75511,29.007113]]]}},{"type":"Feature","properties":{"geoid":"48149","county_name":"Fayette","label":"Fayette County","land_area_sq_km":2460.32,"source":"U.S. Census Bureau 2025 Cartographic Boundary File"},"geometry":{"type":"Polygon","coordinates":[[[-97.315823,29.786541],[-97.221837,29.871837],[-97.194235,29.896776],[-97.165346,29.922973],[-97.14403,29.942245],[-97.130912,29.95406],[-97.128501,29.956473],[-97.121134,29.962585],[-97.107179,29.975232],[-97.106961,29.97543],[-97.086458,29.994298],[-97.044365,30.033151],[-97.044335,30.033192],[-97.024461,30.051435],[-97.019163,30.032],[-96.991442,30.045688],[-96.987139,30.047785],[-96.984382,30.048836],[-96.98319,30.0496],[-96.892419,30.093788],[-96.881791,30.098953],[-96.845857,30.116027],[-96.806259,30.150408],[-96.801371,30.154641],[-96.794552,30.160545],[-96.780751,30.152124],[-96.773016,30.149466],[-96.766937,30.138745],[-96.747229,30.144173],[-96.735967,30.147225],[-96.735445,30.147393],[-96.732136,30.147016],[-96.714989,30.144983],[-96.705462,30.154414],[-96.702002,30.157839],[-96.693755,30.161456],[-96.687141,30.16435],[-96.683394,30.151038],[-96.668606,30.149729],[-96.661872,30.149133],[-96.647223,30.145174],[-96.653062,30.13012],[-96.653112,30.12999],[-96.640649,30.120579],[-96.633673,30.106142],[-96.633186,30.092951],[-96.632478,30.08404],[-96.634289,30.075701],[-96.630847,30.070287],[-96.626018,30.067796],[-96.623863,30.066713],[-96.62198,30.044283],[-96.595676,30.002794],[-96.579504,29.97696],[-96.569844,29.961516],[-96.645289,29.875228],[-96.64608,29.873762],[-96.651189,29.868751],[-96.665151,29.852267],[-96.672926,29.843098],[-96.704342,29.806889],[-96.715154,29.795169],[-96.717043,29.792706],[-96.724337,29.785278],[-96.724737,29.784872],[-96.750254,29.758794],[-96.754346,29.755502],[-96.779939,29.729096],[-96.80637,29.702072],[-96.80789,29.700517],[-96.85044,29.657018],[-96.869116,29.637928],[-96.874222,29.632706],[-96.905413,29.632198],[-96.926987,29.63168],[-96.927117,29.631955],[-96.963634,29.631506],[-96.993244,29.631024],[-96.995126,29.631081],[-97.02106,29.630153],[-97.039475,29.630026],[-97.04525,29.629722],[-97.12209,29.628387],[-97.125264,29.628424],[-97.130431,29.628322],[-97.142643,29.628101],[-97.143262,29.628089],[-97.130517,29.643296],[-97.133444,29.645806],[-97.13625,29.647665],[-97.179139,29.679924],[-97.270441,29.748965],[-97.272686,29.750229],[-97.317893,29.784658],[-97.315823,29.786541]]]}},{"type":"Feature","properties":{"geoid":"48171","county_name":"Gillespie","label":"Gillespie County","land_area_sq_km":2740.74,"source":"U.S. Census Bureau 2025 Cartographic Boundary File"},"geometry":{"type":"Polygon","coordinates":[[[-99.303996,30.499832],[-99.282344,30.499672],[-99.281579,30.499395],[-99.078661,30.498493],[-99.027476,30.49822],[-99.01117,30.498133],[-99.000327,30.498076],[-98.995749,30.498391],[-98.964232,30.498482],[-98.815602,30.49925],[-98.750292,30.498766],[-98.749693,30.498853],[-98.706166,30.499047],[-98.59167,30.499875],[-98.588988,30.312159],[-98.588,30.246296],[-98.587864,30.205381],[-98.587868,30.185947],[-98.587892,30.149087],[-98.587897,30.138954],[-98.624601,30.138886],[-98.625306,30.138945],[-98.656658,30.138837],[-98.667658,30.138799],[-98.73003,30.138589],[-98.749684,30.138523],[-98.75031,30.138188],[-98.772046,30.13798],[-98.90678,30.138312],[-98.920147,30.13829],[-98.958694,30.137969],[-98.979419,30.137726],[-99.064964,30.136736],[-99.125445,30.136061],[-99.155645,30.135725],[-99.187187,30.135372],[-99.214513,30.135067],[-99.300988,30.134298],[-99.301012,30.135947],[-99.301425,30.187937],[-99.301656,30.227924],[-99.301952,30.28107],[-99.301718,30.286653],[-99.302067,30.300648],[-99.303764,30.472182],[-99.303996,30.499832]]]}},{"type":"Feature","properties":{"geoid":"48177","county_name":"Gonzales","label":"Gonzales County","land_area_sq_km":2762.7,"source":"U.S. Census Bureau 2025 Cartographic Boundary File"},"geometry":{"type":"Polygon","coordinates":[[[-97.840383,29.376791],[-97.840125,29.37719],[-97.825607,29.395882],[-97.804618,29.423041],[-97.753818,29.488646],[-97.746306,29.50069],[-97.739639,29.509381],[-97.732981,29.518496],[-97.727647,29.525021],[-97.722534,29.531777],[-97.683924,29.582743],[-97.661801,29.611909],[-97.661368,29.612749],[-97.659757,29.614659],[-97.640024,29.640803],[-97.633504,29.649432],[-97.633176,29.649863],[-97.632965,29.648884],[-97.633879,29.647507],[-97.631707,29.646614],[-97.630369,29.64682],[-97.631131,29.645606],[-97.629951,29.644413],[-97.630188,29.643199],[-97.629429,29.639783],[-97.627676,29.640225],[-97.628168,29.642304],[-97.624692,29.642993],[-97.62199,29.642948],[-97.621229,29.644026],[-97.617477,29.645105],[-97.617161,29.64318],[-97.616242,29.641117],[-97.61674,29.639421],[-97.618077,29.637931],[-97.617894,29.63688],[-97.618836,29.635547],[-97.618456,29.633809],[-97.617497,29.633553],[-97.615969,29.634898],[-97.611885,29.636879],[-97.609104,29.636994],[-97.607492,29.635401],[-97.60585,29.635093],[-97.604644,29.63648],[-97.606368,29.640434],[-97.603731,29.641786],[-97.602272,29.63954],[-97.60003,29.637613],[-97.600368,29.635713],[-97.598629,29.635155],[-97.598583,29.633651],[-97.599947,29.632367],[-97.599632,29.631176],[-97.597695,29.630745],[-97.595145,29.632185],[-97.511442,29.678372],[-97.451439,29.711354],[-97.409777,29.734258],[-97.317893,29.784658],[-97.272686,29.750229],[-97.270441,29.748965],[-97.179139,29.679924],[-97.13625,29.647665],[-97.133444,29.645806],[-97.130517,29.643296],[-97.143262,29.628089],[-97.142643,29.628101],[-97.148402,29.624138],[-97.197872,29.585472],[-97.204087,29.580613],[-97.203744,29.559316],[-97.202635,29.519381],[-97.202595,29.517846],[-97.202331,29.507527],[-97.204794,29.500238],[-97.211244,29.478298],[-97.229184,29.419242],[-97.239601,29.385512],[-97.240108,29.384488],[-97.253742,29.374662],[-97.289155,29.34871],[-97.33368,29.316167],[-97.379051,29.282973],[-97.444486,29.235217],[-97.450564,29.230813],[-97.556513,29.152313],[-97.600988,29.118938],[-97.603331,29.11738],[-97.613132,29.109765],[-97.621438,29.117863],[-97.625298,29.121338],[-97.688995,29.18343],[-97.728443,29.221748],[-97.734087,29.227229],[-97.757701,29.250234],[-97.766439,29.259429],[-97.766999,29.259899],[-97.768831,29.261872],[-97.771082,29.26384],[-97.771334,29.264411],[-97.772508,29.265641],[-97.773308,29.266481],[-97.787643,29.281392],[-97.858782,29.35289],[-97.840383,29.376791]]]}},{"type":"Feature","properties":{"geoid":"48209","county_name":"Hays","label":"Hays County","land_area_sq_km":1753.07,"source":"U.S. Census Bureau 2025 Cartographic Boundary File"},"geometry":{"type":"Polygon","coordinates":[[[-98.294174,30.046801],[-98.287065,30.065073],[-98.270843,30.106737],[-98.263446,30.126141],[-98.259241,30.136542],[-98.23676,30.193501],[-98.226625,30.219432],[-98.206532,30.271324],[-98.182844,30.331952],[-98.182836,30.331992],[-98.181999,30.333927],[-98.179915,30.338771],[-98.178641,30.342335],[-98.172977,30.356312],[-98.125885,30.322774],[-98.124087,30.321551],[-98.08974,30.297288],[-98.080753,30.290673],[-98.066032,30.27982],[-98.026708,30.251686],[-98.010831,30.240339],[-98.009541,30.23942],[-97.982591,30.220149],[-97.969337,30.210672],[-97.944816,30.19315],[-97.929646,30.182304],[-97.928808,30.181703],[-97.906517,30.165632],[-97.89894,30.160183],[-97.898522,30.159894],[-97.890446,30.154072],[-97.883522,30.149067],[-97.874248,30.142397],[-97.857855,30.130641],[-97.854638,30.128332],[-97.847483,30.123195],[-97.846734,30.122657],[-97.835753,30.114775],[-97.832992,30.112799],[-97.813942,30.09915],[-97.813726,30.098988],[-97.813255,30.09868],[-97.812747,30.098414],[-97.810958,30.097099],[-97.802642,30.091054],[-97.795811,30.086113],[-97.789232,30.081354],[-97.784463,30.077907],[-97.781369,30.07567],[-97.759077,30.059761],[-97.755208,30.057007],[-97.751479,30.054354],[-97.729757,30.038748],[-97.70879,30.023451],[-97.709922,30.022596],[-97.712548,30.020613],[-97.71554,30.018427],[-97.715806,30.018237],[-97.746813,29.995798],[-97.748145,29.99583],[-97.749201,29.99593],[-97.749592,29.995752],[-97.753205,29.994021],[-97.755566,29.991877],[-97.756988,29.99048],[-97.75738,29.990269],[-97.758759,29.989527],[-97.759544,29.988923],[-97.760283,29.988411],[-97.760705,29.988119],[-97.765594,29.978837],[-97.770166,29.973162],[-97.77474,29.967494],[-97.774639,29.966517],[-97.776916,29.963475],[-97.777944,29.962641],[-97.78581,29.957198],[-97.786848,29.956036],[-97.788541,29.95375],[-97.790334,29.947845],[-97.792435,29.945177],[-97.792593,29.945057],[-97.793074,29.944833],[-97.79435,29.944369],[-97.800135,29.942247],[-97.803452,29.941241],[-97.813085,29.936688],[-97.817839,29.934427],[-97.820414,29.933026],[-97.822913,29.931628],[-97.828346,29.928409],[-97.83661,29.922282],[-97.849178,29.916],[-97.857523,29.910299],[-97.863197,29.90629],[-97.863838,29.905838],[-97.869594,29.901771],[-97.88112,29.893414],[-97.89016,29.886324],[-97.891146,29.88563],[-97.893896,29.883734],[-97.894637,29.882143],[-97.894531,29.881588],[-97.895526,29.875786],[-97.895576,29.874265],[-97.896148,29.870648],[-97.896927,29.865041],[-97.899289,29.857811],[-97.898668,29.857106],[-97.896768,29.857078],[-97.892818,29.856528],[-97.888821,29.856779],[-97.8874,29.858658],[-97.886084,29.862095],[-97.884348,29.862461],[-97.880983,29.860832],[-97.879105,29.86074],[-97.876293,29.860571],[-97.876014,29.860555],[-97.875281,29.860293],[-97.874819,29.860076],[-97.87456,29.8595],[-97.875259,29.858208],[-97.905173,29.835664],[-97.905297,29.835573],[-97.919255,29.825138],[-97.928116,29.818403],[-97.930509,29.816604],[-97.932916,29.81482],[-97.943564,29.806914],[-97.944471,29.806754],[-97.944572,29.805869],[-97.961814,29.789027],[-97.999271,29.752444],[-98.012943,29.794735],[-98.015044,29.801057],[-98.01518,29.801485],[-98.018657,29.812175],[-98.018682,29.812253],[-98.030523,29.848539],[-98.071531,29.877729],[-98.12127,29.912844],[-98.151587,29.934318],[-98.188144,29.960341],[-98.196608,29.96631],[-98.198395,29.967524],[-98.198953,29.967995],[-98.203141,29.97099],[-98.224261,29.986049],[-98.246305,30.001774],[-98.253898,30.007115],[-98.254522,30.007635],[-98.2976,30.037994],[-98.294174,30.046801]]]}},{"type":"Feature","properties":{"geoid":"48285","county_name":"Lavaca","label":"Lavaca County","land_area_sq_km":2511.54,"source":"U.S. Census Bureau 2025 Cartographic Boundary File"},"geometry":{"type":"Polygon","coordinates":[[[-97.239601,29.385512],[-97.229184,29.419242],[-97.211244,29.478298],[-97.204794,29.500238],[-97.202331,29.507527],[-97.202595,29.517846],[-97.202635,29.519381],[-97.203744,29.559316],[-97.204087,29.580613],[-97.197872,29.585472],[-97.148402,29.624138],[-97.142643,29.628101],[-97.130431,29.628322],[-97.125264,29.628424],[-97.12209,29.628387],[-97.04525,29.629722],[-97.039475,29.630026],[-97.02106,29.630153],[-96.995126,29.631081],[-96.993244,29.631024],[-96.963634,29.631506],[-96.927117,29.631955],[-96.926987,29.63168],[-96.905413,29.632198],[-96.874222,29.632706],[-96.864996,29.632706],[-96.865969,29.630626],[-96.865566,29.630153],[-96.86289,29.629742],[-96.863085,29.628334],[-96.859075,29.626725],[-96.859144,29.624376],[-96.857136,29.62321],[-96.854581,29.623024],[-96.850987,29.621513],[-96.848029,29.620969],[-96.847242,29.620172],[-96.848953,29.618918],[-96.847348,29.61706],[-96.843213,29.61662],[-96.843131,29.61485],[-96.842338,29.612826],[-96.843564,29.611056],[-96.84428,29.609041],[-96.841261,29.607647],[-96.840354,29.605227],[-96.837931,29.603793],[-96.837566,29.60029],[-96.836873,29.598569],[-96.836112,29.598487],[-96.833324,29.595903],[-96.833362,29.595298],[-96.835765,29.592773],[-96.836311,29.588556],[-96.838947,29.586163],[-96.839287,29.585245],[-96.838745,29.583046],[-96.83653,29.580907],[-96.834794,29.579934],[-96.832812,29.576863],[-96.793132,29.577378],[-96.792988,29.577228],[-96.761287,29.544276],[-96.757798,29.54065],[-96.706877,29.487566],[-96.706155,29.486696],[-96.703613,29.483805],[-96.688914,29.467968],[-96.560555,29.335439],[-96.573182,29.326144],[-96.658466,29.263876],[-96.678413,29.249382],[-96.686128,29.243911],[-96.804151,29.160355],[-96.847554,29.12968],[-96.938587,29.063244],[-96.976378,29.104046],[-96.981541,29.109621],[-96.995426,29.124612],[-96.996259,29.125253],[-97.110894,29.250248],[-97.128959,29.268925],[-97.137164,29.277453],[-97.145644,29.286276],[-97.148614,29.289446],[-97.150111,29.291022],[-97.158192,29.299429],[-97.160889,29.302216],[-97.202696,29.345587],[-97.240108,29.384488],[-97.239601,29.385512]]]}},{"type":"Feature","properties":{"geoid":"48287","county_name":"Lee","label":"Lee County","land_area_sq_km":1629.25,"source":"U.S. Census Bureau 2025 Cartographic Boundary File"},"geometry":{"type":"Polygon","coordinates":[[[-97.306478,30.411174],[-97.281534,30.418687],[-97.239934,30.431302],[-97.1873,30.447499],[-97.155219,30.457344],[-97.13472,30.468137],[-97.126449,30.472532],[-97.085749,30.493669],[-97.051648,30.51156],[-96.96363,30.557198],[-96.963326,30.555465],[-96.961686,30.551819],[-96.959393,30.551385],[-96.957144,30.552326],[-96.956293,30.552062],[-96.956,30.550655],[-96.954132,30.549143],[-96.951794,30.548588],[-96.950886,30.547362],[-96.948999,30.54784],[-96.948205,30.546993],[-96.949107,30.54541],[-96.946814,30.54453],[-96.945276,30.543244],[-96.942888,30.545498],[-96.943243,30.546812],[-96.941649,30.546339],[-96.939299,30.546526],[-96.939203,30.545113],[-96.936859,30.544833],[-96.934204,30.543826],[-96.932965,30.542919],[-96.931434,30.543452],[-96.930056,30.54304],[-96.9297,30.544156],[-96.928499,30.544227],[-96.926988,30.54222],[-96.925705,30.543485],[-96.924155,30.541296],[-96.922224,30.539647],[-96.920661,30.539976],[-96.918902,30.539212],[-96.91842,30.537188],[-96.916343,30.535154],[-96.914312,30.531447],[-96.914439,30.530375],[-96.913086,30.530084],[-96.913423,30.528478],[-96.911899,30.527444],[-96.91176,30.525448],[-96.912383,30.523502],[-96.909125,30.52271],[-96.908802,30.520593],[-96.907971,30.517365],[-96.906402,30.516991],[-96.905602,30.518624],[-96.904236,30.518843],[-96.904625,30.515902],[-96.906543,30.515209],[-96.906422,30.514286],[-96.904638,30.514197],[-96.90279,30.514928],[-96.902231,30.514197],[-96.902956,30.512613],[-96.906061,30.512675],[-96.904272,30.50844],[-96.906312,30.503091],[-96.908699,30.501943],[-96.906369,30.501128],[-96.904147,30.500886],[-96.901635,30.499585],[-96.899274,30.496928],[-96.899833,30.495636],[-96.898089,30.492062],[-96.897398,30.489543],[-96.895906,30.489158],[-96.896675,30.488268],[-96.895889,30.486898],[-96.89681,30.484006],[-96.898042,30.483759],[-96.900671,30.481896],[-96.901897,30.481765],[-96.902678,30.479439],[-96.902819,30.477476],[-96.903938,30.473551],[-96.905449,30.472375],[-96.905793,30.470099],[-96.904523,30.469307],[-96.903108,30.469949],[-96.902137,30.469603],[-96.901915,30.468272],[-96.904371,30.468212],[-96.90462,30.466453],[-96.902112,30.46698],[-96.901631,30.464165],[-96.899943,30.463026],[-96.900109,30.461921],[-96.897983,30.461035],[-96.899843,30.460277],[-96.898555,30.459276],[-96.896054,30.460424],[-96.893985,30.459868],[-96.889726,30.460932],[-96.887358,30.461838],[-96.887003,30.460255],[-96.885785,30.459887],[-96.883982,30.460755],[-96.883956,30.461926],[-96.882287,30.461705],[-96.880854,30.459731],[-96.878747,30.459213],[-96.879687,30.458119],[-96.878113,30.457151],[-96.874822,30.457466],[-96.874593,30.456422],[-96.875754,30.4555],[-96.874965,30.453057],[-96.876085,30.452877],[-96.877076,30.451591],[-96.877109,30.450068],[-96.875414,30.450639],[-96.874062,30.44967],[-96.875707,30.448841],[-96.877275,30.449369],[-96.877111,30.447693],[-96.875518,30.446857],[-96.874999,30.445727],[-96.872466,30.444585],[-96.870859,30.441485],[-96.872413,30.439065],[-96.870678,30.435503],[-96.86807,30.433791],[-96.865354,30.434751],[-96.864846,30.43396],[-96.865677,30.43297],[-96.864547,30.432619],[-96.860912,30.433774],[-96.858672,30.433418],[-96.858241,30.434078],[-96.855671,30.432825],[-96.852974,30.432188],[-96.853025,30.43127],[-96.851667,30.43166],[-96.850182,30.429989],[-96.848399,30.431199],[-96.846242,30.431387],[-96.845651,30.429188],[-96.844167,30.429535],[-96.843773,30.428721],[-96.845568,30.427714],[-96.843721,30.425746],[-96.84185,30.426214],[-96.842446,30.424889],[-96.840454,30.424422],[-96.840834,30.422041],[-96.839457,30.420887],[-96.837338,30.421717],[-96.836279,30.421278],[-96.836266,30.422399],[-96.834553,30.422818],[-96.833836,30.421273],[-96.834756,30.421234],[-96.833588,30.419755],[-96.83395,30.41898],[-96.832484,30.418854],[-96.832713,30.420333],[-96.83166,30.419821],[-96.831133,30.417925],[-96.829553,30.418365],[-96.826464,30.416149],[-96.825195,30.416303],[-96.824586,30.41489],[-96.826076,30.414742],[-96.821763,30.412878],[-96.822448,30.410338],[-96.820709,30.409821],[-96.819333,30.408194],[-96.819117,30.407023],[-96.817772,30.406472],[-96.814937,30.405187],[-96.813358,30.405665],[-96.813453,30.404934],[-96.809825,30.404439],[-96.808898,30.402586],[-96.81082,30.401129],[-96.80947,30.399562],[-96.808258,30.396543],[-96.806438,30.396494],[-96.802506,30.394564],[-96.798948,30.391056],[-96.797211,30.39066],[-96.796405,30.391418],[-96.793689,30.391489],[-96.791795,30.390675],[-96.790114,30.390697],[-96.787616,30.388948],[-96.788307,30.387865],[-96.787147,30.387403],[-96.78846,30.386436],[-96.788162,30.38516],[-96.789697,30.383489],[-96.78725,30.381894],[-96.787643,30.380316],[-96.786191,30.37986],[-96.785228,30.3786],[-96.784118,30.37954],[-96.78434,30.378248],[-96.782254,30.37628],[-96.779686,30.375966],[-96.781426,30.37388],[-96.780539,30.372054],[-96.778301,30.37097],[-96.777223,30.371492],[-96.776419,30.369084],[-96.774916,30.369347],[-96.773268,30.367593],[-96.771297,30.366481],[-96.769858,30.364743],[-96.769707,30.362863],[-96.768575,30.357766],[-96.766744,30.35616],[-96.765756,30.353762],[-96.767487,30.353015],[-96.765136,30.35048],[-96.76382,30.3469],[-96.762489,30.346234],[-96.760247,30.343275],[-96.76116,30.342418],[-96.760692,30.340538],[-96.759095,30.339927],[-96.757206,30.340618],[-96.754398,30.340711],[-96.752865,30.338021],[-96.753516,30.334771],[-96.753973,30.331328],[-96.755078,30.330655],[-96.754414,30.329225],[-96.753435,30.330166],[-96.75305,30.329328],[-96.751527,30.329657],[-96.75081,30.327793],[-96.747643,30.327294],[-96.746969,30.325424],[-96.746485,30.326347],[-96.743956,30.323875],[-96.745207,30.321815],[-96.743513,30.321979],[-96.744682,30.320691],[-96.743672,30.319757],[-96.741281,30.319521],[-96.740542,30.318655],[-96.736671,30.319448],[-96.737784,30.320892],[-96.734412,30.322032],[-96.734441,30.323713],[-96.733618,30.322672],[-96.732266,30.322981],[-96.732943,30.323933],[-96.730891,30.323416],[-96.730407,30.32424],[-96.726977,30.323062],[-96.725811,30.32332],[-96.723736,30.320758],[-96.722675,30.320804],[-96.72194,30.31889],[-96.71814,30.318851],[-96.716357,30.320153],[-96.712166,30.318905],[-96.710085,30.318688],[-96.707051,30.317702],[-96.70569,30.31904],[-96.703704,30.319357],[-96.703089,30.320269],[-96.701198,30.319604],[-96.699522,30.320686],[-96.694682,30.320191],[-96.692077,30.318722],[-96.688163,30.317964],[-96.686855,30.317136],[-96.686359,30.314699],[-96.685241,30.312582],[-96.685493,30.3116],[-96.683884,30.31032],[-96.683466,30.311357],[-96.682428,30.309224],[-96.680516,30.309807],[-96.679254,30.30928],[-96.677921,30.309809],[-96.675981,30.307687],[-96.673497,30.307615],[-96.67325,30.306714],[-96.674974,30.305038],[-96.673803,30.303934],[-96.672967,30.30454],[-96.671293,30.303694],[-96.670912,30.302508],[-96.669565,30.303349],[-96.670427,30.300047],[-96.66921,30.300137],[-96.668269,30.297562],[-96.665789,30.29721],[-96.663716,30.295549],[-96.660903,30.298006],[-96.6595,30.297692],[-96.659724,30.298741],[-96.658573,30.299437],[-96.654653,30.300207],[-96.653919,30.29936],[-96.651884,30.299354],[-96.651327,30.300477],[-96.650649,30.29921],[-96.649209,30.299251],[-96.648689,30.300221],[-96.648251,30.298259],[-96.645483,30.29764],[-96.644572,30.296834],[-96.640883,30.296786],[-96.642044,30.295488],[-96.642229,30.29355],[-96.644208,30.293266],[-96.645684,30.291434],[-96.648396,30.292182],[-96.65044,30.291712],[-96.650383,30.29076],[-96.65316,30.289805],[-96.654218,30.287503],[-96.657895,30.287777],[-96.660068,30.285415],[-96.659523,30.282585],[-96.661783,30.279982],[-96.661499,30.278745],[-96.66492,30.277365],[-96.665407,30.277789],[-96.668689,30.275711],[-96.669988,30.273809],[-96.669697,30.271561],[-96.671071,30.269812],[-96.672104,30.267361],[-96.673605,30.266388],[-96.676722,30.266608],[-96.6779,30.263727],[-96.678882,30.263227],[-96.678996,30.261451],[-96.680041,30.260088],[-96.679864,30.259071],[-96.683024,30.258752],[-96.684373,30.257713],[-96.685272,30.256014],[-96.684316,30.254513],[-96.684563,30.252957],[-96.685709,30.252699],[-96.684126,30.250516],[-96.685672,30.248915],[-96.687104,30.248069],[-96.689567,30.24863],[-96.690922,30.248228],[-96.692993,30.248943],[-96.694727,30.250335],[-96.695279,30.249339],[-96.696564,30.250071],[-96.69678,30.249179],[-96.698059,30.249465],[-96.701422,30.248575],[-96.701573,30.247327],[-96.705753,30.245864],[-96.706626,30.244627],[-96.707532,30.245341],[-96.710882,30.245451],[-96.712142,30.246331],[-96.712478,30.247639],[-96.714276,30.247199],[-96.713852,30.248233],[-96.714181,30.250684],[-96.715024,30.250871],[-96.715037,30.249739],[-96.718437,30.25048],[-96.720995,30.24822],[-96.721996,30.24816],[-96.722015,30.246818],[-96.72337,30.245878],[-96.724921,30.246867],[-96.72651,30.243793],[-96.727839,30.243469],[-96.728821,30.244145],[-96.729321,30.243336],[-96.73191,30.243752],[-96.733215,30.241856],[-96.734513,30.241306],[-96.734069,30.240207],[-96.735228,30.239508],[-96.734075,30.239096],[-96.735556,30.236451],[-96.736359,30.23401],[-96.737178,30.233307],[-96.736972,30.231882],[-96.738821,30.232261],[-96.738466,30.231057],[-96.740213,30.228994],[-96.741922,30.22801],[-96.742535,30.226937],[-96.741364,30.226366],[-96.741679,30.224128],[-96.740944,30.223276],[-96.739767,30.223771],[-96.739057,30.222612],[-96.739981,30.22072],[-96.74362,30.218135],[-96.743987,30.21731],[-96.743308,30.214489],[-96.742041,30.212109],[-96.740597,30.212154],[-96.741451,30.210455],[-96.740697,30.208619],[-96.74112,30.207689],[-96.739848,30.206733],[-96.740696,30.205952],[-96.74005,30.205111],[-96.739909,30.203148],[-96.740567,30.201147],[-96.7418,30.199794],[-96.741508,30.19743],[-96.744026,30.195941],[-96.769037,30.178292],[-96.794552,30.160545],[-96.801371,30.154641],[-96.806259,30.150408],[-96.845857,30.116027],[-96.881791,30.098953],[-96.892419,30.093788],[-96.98319,30.0496],[-96.984382,30.048836],[-96.987139,30.047785],[-96.991442,30.045688],[-97.019163,30.032],[-97.024461,30.051435],[-97.04821,30.137947],[-97.059188,30.178064],[-97.063361,30.192943],[-97.073527,30.22953],[-97.079936,30.252484],[-97.080719,30.255364],[-97.081834,30.259357],[-97.102499,30.273082],[-97.114505,30.281159],[-97.136284,30.295667],[-97.137225,30.296294],[-97.158811,30.310695],[-97.198914,30.337448],[-97.218153,30.34671],[-97.251707,30.362848],[-97.258727,30.366191],[-97.263056,30.36827],[-97.279958,30.376315],[-97.282434,30.377706],[-97.291599,30.382093],[-97.334463,30.402843],[-97.306478,30.411174]]]}},{"type":"Feature","properties":{"geoid":"48299","county_name":"Llano","label":"Llano County","land_area_sq_km":2419.23,"source":"U.S. Census Bureau 2025 Cartographic Boundary File"},"geometry":{"type":"Polygon","coordinates":[[[-98.964612,30.921368],[-98.963716,30.921387],[-98.875437,30.920744],[-98.870309,30.921097],[-98.750312,30.920343],[-98.747007,30.920871],[-98.625865,30.921892],[-98.624386,30.921779],[-98.557512,30.921998],[-98.529989,30.92175],[-98.523681,30.922121],[-98.517683,30.922048],[-98.516771,30.922042],[-98.51552,30.921843],[-98.500327,30.921949],[-98.448077,30.921556],[-98.445782,30.921439],[-98.447322,30.917073],[-98.44833,30.911841],[-98.449173,30.907026],[-98.449463,30.903162],[-98.449356,30.896605],[-98.448471,30.892838],[-98.448753,30.890335],[-98.449493,30.889439],[-98.454178,30.885838],[-98.456436,30.883095],[-98.457207,30.881147],[-98.457382,30.878897],[-98.456352,30.876455],[-98.454299,30.874199],[-98.452493,30.87231],[-98.45079,30.871435],[-98.448326,30.870588],[-98.445867,30.870327],[-98.437782,30.870567],[-98.434113,30.870127],[-98.431557,30.869432],[-98.426871,30.867293],[-98.422365,30.864188],[-98.420738,30.862213],[-98.41935,30.859121],[-98.419632,30.850876],[-98.421026,30.845025],[-98.422211,30.83923],[-98.422089,30.835646],[-98.421593,30.834997],[-98.415718,30.834728],[-98.412468,30.835114],[-98.408851,30.836559],[-98.406903,30.839051],[-98.405769,30.842984],[-98.404977,30.843823],[-98.401384,30.843996],[-98.397636,30.843813],[-98.393646,30.84296],[-98.388229,30.840576],[-98.381371,30.838202],[-98.379578,30.837223],[-98.376877,30.83489],[-98.376811,30.831875],[-98.377595,30.829507],[-98.380074,30.825998],[-98.383899,30.822005],[-98.387627,30.819347],[-98.390053,30.818436],[-98.395378,30.818176],[-98.400887,30.818901],[-98.403336,30.817936],[-98.404948,30.815745],[-98.405434,30.813951],[-98.408159,30.809008],[-98.408653,30.80732],[-98.408958,30.80162],[-98.409721,30.799131],[-98.411224,30.796371],[-98.412552,30.794991],[-98.415596,30.79427],[-98.419941,30.7953],[-98.425045,30.795658],[-98.428482,30.79394],[-98.431996,30.790436],[-98.432543,30.78858],[-98.432098,30.78631],[-98.42971,30.783209],[-98.42485,30.778938],[-98.422714,30.776054],[-98.42289,30.773052],[-98.424355,30.77033],[-98.426907,30.767828],[-98.42923,30.763807],[-98.430214,30.76096],[-98.43029,30.757783],[-98.428956,30.754272],[-98.42663,30.751527],[-98.424046,30.750507],[-98.42234,30.750463],[-98.418248,30.751282],[-98.41577,30.75181],[-98.414504,30.751957],[-98.411769,30.751496],[-98.406853,30.751492],[-98.400156,30.75022],[-98.397793,30.748269],[-98.394249,30.746489],[-98.391408,30.746034],[-98.384781,30.746143],[-98.379555,30.747374],[-98.375237,30.746574],[-98.374076,30.745735],[-98.371628,30.742922],[-98.371905,30.740485],[-98.374062,30.738295],[-98.376249,30.737055],[-98.385037,30.730773],[-98.385521,30.730331],[-98.388412,30.725673],[-98.390656,30.722862],[-98.392654,30.721233],[-98.397476,30.721252],[-98.402107,30.72184],[-98.404152,30.721083],[-98.407708,30.716541],[-98.408603,30.71309],[-98.409073,30.710403],[-98.410448,30.707891],[-98.413962,30.704392],[-98.414436,30.702959],[-98.414001,30.701834],[-98.409941,30.697331],[-98.407738,30.694563],[-98.40546,30.690226],[-98.404888,30.68782],[-98.402176,30.680794],[-98.402916,30.677359],[-98.405014,30.675642],[-98.407776,30.67502],[-98.413432,30.675913],[-98.416862,30.675362],[-98.419899,30.674273],[-98.424812,30.674179],[-98.428154,30.67503],[-98.430115,30.675138],[-98.434883,30.674205],[-98.438995,30.673285],[-98.440462,30.671723],[-98.441643,30.669157],[-98.441759,30.666352],[-98.441124,30.664818],[-98.439087,30.66251],[-98.433284,30.662809],[-98.429512,30.661806],[-98.428352,30.66073],[-98.428552,30.657893],[-98.429043,30.65567],[-98.4289,30.655012],[-98.428113,30.653978],[-98.423083,30.650051],[-98.418594,30.645926],[-98.417908,30.644794],[-98.417387,30.643248],[-98.417097,30.638706],[-98.418442,30.633005],[-98.41834,30.629922],[-98.417595,30.627274],[-98.411928,30.616419],[-98.410551,30.613758],[-98.406002,30.606894],[-98.403242,30.603694],[-98.400736,30.599784],[-98.399996,30.597305],[-98.400132,30.596178],[-98.400696,30.594644],[-98.402397,30.593178],[-98.40806,30.590432],[-98.412445,30.587711],[-98.413699,30.585921],[-98.413705,30.58378],[-98.413089,30.581562],[-98.411148,30.574644],[-98.410599,30.573589],[-98.408172,30.569671],[-98.404086,30.564868],[-98.402904,30.563968],[-98.399914,30.563604],[-98.397536,30.564083],[-98.390198,30.567787],[-98.387864,30.56834],[-98.386876,30.568647],[-98.381343,30.570976],[-98.375946,30.573894],[-98.370311,30.574438],[-98.366816,30.573292],[-98.364288,30.571592],[-98.352057,30.558472],[-98.351982,30.558084],[-98.351931,30.548087],[-98.351907,30.543822],[-98.35152,30.517303],[-98.351517,30.51719],[-98.351162,30.512487],[-98.351041,30.486096],[-98.377213,30.493143],[-98.397203,30.498571],[-98.400964,30.499589],[-98.411462,30.502095],[-98.438905,30.501862],[-98.456624,30.501741],[-98.59167,30.499875],[-98.706166,30.499047],[-98.749693,30.498853],[-98.750292,30.498766],[-98.815602,30.49925],[-98.964232,30.498482],[-98.964204,30.500188],[-98.964112,30.500742],[-98.964016,30.705236],[-98.964612,30.921368]]]}},{"type":"Feature","properties":{"geoid":"48319","county_name":"Mason","label":"Mason County","land_area_sq_km":2405.67,"source":"U.S. Census Bureau 2025 Cartographic Boundary File"},"geometry":{"type":"Polygon","coordinates":[[[-99.484755,30.940605],[-99.387423,30.940666],[-99.375337,30.940684],[-99.373991,30.94102],[-99.312517,30.940888],[-99.299925,30.940947],[-99.28256,30.941028],[-99.25033,30.941186],[-99.247927,30.941044],[-99.222448,30.94105],[-99.187577,30.941066],[-99.1568,30.941076],[-99.125338,30.940868],[-99.092317,30.941002],[-99.092431,30.921968],[-99.033478,30.921788],[-98.9778,30.921447],[-98.964612,30.921368],[-98.964016,30.705236],[-98.964112,30.500742],[-98.964204,30.500188],[-98.964232,30.498482],[-98.995749,30.498391],[-99.000327,30.498076],[-99.01117,30.498133],[-99.027476,30.49822],[-99.078661,30.498493],[-99.281579,30.499395],[-99.282344,30.499672],[-99.303996,30.499832],[-99.308119,30.499793],[-99.484493,30.499641],[-99.48453,30.516912],[-99.484401,30.550104],[-99.484049,30.625182],[-99.483997,30.644254],[-99.483869,30.710771],[-99.484366,30.823445],[-99.484699,30.909603],[-99.484694,30.909617],[-99.484755,30.940605]]]}},{"type":"Feature","properties":{"geoid":"48453","county_name":"Travis","label":"Travis County","land_area_sq_km":2575.3,"source":"U.S. Census Bureau 2025 Cartographic Boundary File"},"geometry":{"type":"Polygon","coordinates":[[[-98.159266,30.376651],[-98.128983,30.421135],[-98.127988,30.422625],[-98.125556,30.426186],[-98.125481,30.426164],[-98.107733,30.452705],[-98.103164,30.459695],[-98.100599,30.463115],[-98.097709,30.467626],[-98.097793,30.497442],[-98.100861,30.497463],[-98.105919,30.49534],[-98.108284,30.493576],[-98.110557,30.490909],[-98.113723,30.485576],[-98.118165,30.484793],[-98.123111,30.484723],[-98.123126,30.487041],[-98.116867,30.498705],[-98.116386,30.500194],[-98.101262,30.528485],[-98.074918,30.577538],[-98.072933,30.581236],[-98.066559,30.593103],[-98.056743,30.611385],[-98.049886,30.624155],[-98.040294,30.618204],[-98.039592,30.618553],[-98.036495,30.611726],[-98.0297,30.614723],[-98.017729,30.616455],[-98.012741,30.616767],[-98.006276,30.627516],[-98.004302,30.62519],[-98.001945,30.621425],[-97.997989,30.613024],[-97.9924,30.609494],[-97.991015,30.609849],[-97.977867,30.622114],[-97.966311,30.623676],[-97.96259,30.62519],[-97.956734,30.628249],[-97.951883,30.625191],[-97.9405,30.614824],[-97.934809,30.610286],[-97.927985,30.608204],[-97.921919,30.606353],[-97.917063,30.604871],[-97.92008,30.596218],[-97.921895,30.590958],[-97.920383,30.586774],[-97.915123,30.580567],[-97.916977,30.578546],[-97.919033,30.576328],[-97.919151,30.576198],[-97.926985,30.567654],[-97.921825,30.564231],[-97.911289,30.568331],[-97.906325,30.570275],[-97.902456,30.571328],[-97.900129,30.568914],[-97.898363,30.567086],[-97.895785,30.564917],[-97.894276,30.565013],[-97.893324,30.565074],[-97.892824,30.565171],[-97.891455,30.566518],[-97.890039,30.565803],[-97.888596,30.563925],[-97.887695,30.556612],[-97.886785,30.555843],[-97.88412,30.553593],[-97.883369,30.552958],[-97.881295,30.553304],[-97.873648,30.549441],[-97.868845,30.546997],[-97.867866,30.546499],[-97.870861,30.526421],[-97.871139,30.524561],[-97.871416,30.522714],[-97.86721,30.517309],[-97.859729,30.512315],[-97.859401,30.511916],[-97.855765,30.507401],[-97.856107,30.502812],[-97.858393,30.500831],[-97.858447,30.500783],[-97.862248,30.497309],[-97.859328,30.493448],[-97.85922,30.493305],[-97.857747,30.491357],[-97.852275,30.484131],[-97.85124,30.48276],[-97.848122,30.478549],[-97.84697,30.47721],[-97.846628,30.476713],[-97.845893,30.475635],[-97.846541,30.47341],[-97.846273,30.473201],[-97.84117,30.469126],[-97.832012,30.461871],[-97.826562,30.457517],[-97.826064,30.455854],[-97.825881,30.455731],[-97.825723,30.455605],[-97.823981,30.454287],[-97.823069,30.453436],[-97.818448,30.451303],[-97.811942,30.447067],[-97.804016,30.447165],[-97.799725,30.447138],[-97.794409,30.444843],[-97.788777,30.44419],[-97.785341,30.440655],[-97.783788,30.439902],[-97.779967,30.438733],[-97.779387,30.438401],[-97.777287,30.431946],[-97.77634,30.429768],[-97.773563,30.430743],[-97.767986,30.432571],[-97.766056,30.432411],[-97.765609,30.432407],[-97.765323,30.432404],[-97.753635,30.433287],[-97.754523,30.439282],[-97.754665,30.440223],[-97.751559,30.444905],[-97.749634,30.44757],[-97.746803,30.449346],[-97.746223,30.449417],[-97.738983,30.449578],[-97.733685,30.449701],[-97.729986,30.451519],[-97.721149,30.455835],[-97.720358,30.456139],[-97.715192,30.458648],[-97.703984,30.458501],[-97.695984,30.461401],[-97.694592,30.461501],[-97.692142,30.461496],[-97.689519,30.461422],[-97.688784,30.461401],[-97.687698,30.464914],[-97.6866,30.468257],[-97.68412,30.47629],[-97.682893,30.480066],[-97.67424,30.48079],[-97.673946,30.480093],[-97.673759,30.480101],[-97.669898,30.478414],[-97.665678,30.480931],[-97.663886,30.481593],[-97.659195,30.478959],[-97.656269,30.477315],[-97.653525,30.475854],[-97.651441,30.474894],[-97.650761,30.475215],[-97.649835,30.475539],[-97.648761,30.475987],[-97.646087,30.477043],[-97.645823,30.477128],[-97.643475,30.478077],[-97.643898,30.479006],[-97.64152,30.481826],[-97.641347,30.482039],[-97.633633,30.48401],[-97.632499,30.484111],[-97.628008,30.485236],[-97.624592,30.487096],[-97.624516,30.487138],[-97.624229,30.487297],[-97.618647,30.490377],[-97.61754,30.489421],[-97.615275,30.489546],[-97.610186,30.489999],[-97.606833,30.490313],[-97.60609,30.495138],[-97.60439,30.496486],[-97.603905,30.496915],[-97.603536,30.497184],[-97.601609,30.498695],[-97.596162,30.501481],[-97.593523,30.500497],[-97.591314,30.500909],[-97.591055,30.497564],[-97.589855,30.497397],[-97.588793,30.497915],[-97.587881,30.498006],[-97.586283,30.498769],[-97.581177,30.500751],[-97.580596,30.500698],[-97.580053,30.500394],[-97.579808,30.500501],[-97.578186,30.50043],[-97.578005,30.500413],[-97.577928,30.500411],[-97.575054,30.500275],[-97.574519,30.500246],[-97.573233,30.50019],[-97.572658,30.500277],[-97.572076,30.500257],[-97.570282,30.500019],[-97.568255,30.499725],[-97.568886,30.496162],[-97.563769,30.495557],[-97.563456,30.491832],[-97.552964,30.490295],[-97.551561,30.486247],[-97.549326,30.48113],[-97.54949,30.480249],[-97.549495,30.480182],[-97.550068,30.476483],[-97.546079,30.47542],[-97.543141,30.479161],[-97.544233,30.479476],[-97.544183,30.479535],[-97.543443,30.479425],[-97.543168,30.47935],[-97.540501,30.478639],[-97.528151,30.475434],[-97.523971,30.472175],[-97.523448,30.473553],[-97.522357,30.476381],[-97.510862,30.485265],[-97.50479,30.481095],[-97.502551,30.480567],[-97.501374,30.477923],[-97.501348,30.477292],[-97.497277,30.476335],[-97.489092,30.473292],[-97.486429,30.469473],[-97.480123,30.470432],[-97.476492,30.469126],[-97.475502,30.467145],[-97.471326,30.466974],[-97.466917,30.46519],[-97.463933,30.460643],[-97.459784,30.458317],[-97.45339,30.461306],[-97.445628,30.461404],[-97.444949,30.456125],[-97.444239,30.455945],[-97.441836,30.455332],[-97.439541,30.460282],[-97.437301,30.460763],[-97.434113,30.459719],[-97.433282,30.45291],[-97.427094,30.452201],[-97.42514,30.449081],[-97.42534,30.447822],[-97.424261,30.447678],[-97.422758,30.445278],[-97.421908,30.444319],[-97.415252,30.438337],[-97.408769,30.43819],[-97.40624,30.442288],[-97.402818,30.440088],[-97.395491,30.437765],[-97.393031,30.438768],[-97.391505,30.436858],[-97.39254,30.434426],[-97.387599,30.43342],[-97.387189,30.431319],[-97.386922,30.429948],[-97.384763,30.428962],[-97.383253,30.426037],[-97.38339,30.42415],[-97.381745,30.424048],[-97.379429,30.423901],[-97.377729,30.42237],[-97.376767,30.419196],[-97.373537,30.417715],[-97.369539,30.419563],[-97.374866,30.410806],[-97.377227,30.407086],[-97.383184,30.396835],[-97.400089,30.367906],[-97.402308,30.364156],[-97.409393,30.35215],[-97.409837,30.351394],[-97.413962,30.344361],[-97.425697,30.324398],[-97.445332,30.290984],[-97.446356,30.289243],[-97.450426,30.282321],[-97.460874,30.264446],[-97.462,30.261747],[-97.469756,30.249274],[-97.472771,30.243893],[-97.48042,30.230615],[-97.486329,30.220528],[-97.490138,30.214065],[-97.491254,30.21211],[-97.492482,30.210011],[-97.516331,30.188253],[-97.526468,30.179189],[-97.529228,30.176525],[-97.529459,30.176339],[-97.566048,30.143144],[-97.567998,30.141458],[-97.57632,30.133712],[-97.579723,30.130804],[-97.609749,30.103447],[-97.610779,30.10275],[-97.614227,30.10046],[-97.625049,30.090801],[-97.626132,30.090041],[-97.633654,30.08306],[-97.639208,30.07829],[-97.64937,30.067944],[-97.651094,30.069575],[-97.653693,30.071564],[-97.661279,30.064804],[-97.662656,30.063573],[-97.685377,30.043259],[-97.686398,30.042353],[-97.689207,30.039892],[-97.690084,30.03912],[-97.691179,30.038159],[-97.702022,30.028652],[-97.707765,30.024059],[-97.70879,30.023451],[-97.729757,30.038748],[-97.751479,30.054354],[-97.755208,30.057007],[-97.759077,30.059761],[-97.781369,30.07567],[-97.784463,30.077907],[-97.789232,30.081354],[-97.795811,30.086113],[-97.802642,30.091054],[-97.810958,30.097099],[-97.812747,30.098414],[-97.813255,30.09868],[-97.813726,30.098988],[-97.813942,30.09915],[-97.832992,30.112799],[-97.835753,30.114775],[-97.846734,30.122657],[-97.847483,30.123195],[-97.854638,30.128332],[-97.857855,30.130641],[-97.874248,30.142397],[-97.883522,30.149067],[-97.890446,30.154072],[-97.898522,30.159894],[-97.89894,30.160183],[-97.906517,30.165632],[-97.928808,30.181703],[-97.929646,30.182304],[-97.944816,30.19315],[-97.969337,30.210672],[-97.982591,30.220149],[-98.009541,30.23942],[-98.010831,30.240339],[-98.026708,30.251686],[-98.066032,30.27982],[-98.080753,30.290673],[-98.08974,30.297288],[-98.124087,30.321551],[-98.125885,30.322774],[-98.172977,30.356312],[-98.159266,30.376651]]]}},{"type":"Feature","properties":{"geoid":"48491","county_name":"Williamson","label":"Williamson County","land_area_sq_km":2890.09,"source":"U.S. Census Bureau 2025 Cartographic Boundary File"},"geometry":{"type":"Polygon","coordinates":[[[-98.049886,30.624155],[-98.030344,30.660451],[-98.003491,30.710043],[-97.997996,30.720209],[-97.974361,30.764553],[-97.96286,30.785641],[-97.945436,30.801309],[-97.939554,30.806541],[-97.906202,30.836002],[-97.904133,30.837886],[-97.90297,30.838243],[-97.903179,30.838749],[-97.892834,30.847839],[-97.879144,30.859907],[-97.874816,30.863467],[-97.8281,30.904414],[-97.800349,30.89963],[-97.773835,30.895094],[-97.72987,30.887623],[-97.705432,30.883471],[-97.6803,30.879085],[-97.625279,30.870189],[-97.624051,30.870004],[-97.589397,30.85681],[-97.550732,30.842112],[-97.54002,30.838003],[-97.513067,30.827711],[-97.460436,30.807676],[-97.444918,30.801752],[-97.419373,30.792068],[-97.419175,30.79199],[-97.402486,30.785582],[-97.38834,30.780257],[-97.375365,30.775307],[-97.373841,30.774281],[-97.359001,30.76873],[-97.356846,30.767807],[-97.331004,30.758234],[-97.328987,30.757347],[-97.315485,30.752363],[-97.307122,30.749306],[-97.27455,30.737071],[-97.269949,30.735362],[-97.252409,30.693473],[-97.236447,30.654855],[-97.236852,30.654725],[-97.226166,30.629707],[-97.22203,30.619935],[-97.220024,30.614839],[-97.218861,30.611883],[-97.218237,30.610253],[-97.217865,30.609256],[-97.215946,30.604411],[-97.214774,30.602328],[-97.164933,30.481016],[-97.162104,30.474156],[-97.155219,30.457344],[-97.1873,30.447499],[-97.239934,30.431302],[-97.281534,30.418687],[-97.306478,30.411174],[-97.334463,30.402843],[-97.369539,30.419563],[-97.373537,30.417715],[-97.376767,30.419196],[-97.377729,30.42237],[-97.379429,30.423901],[-97.381745,30.424048],[-97.38339,30.42415],[-97.383253,30.426037],[-97.384763,30.428962],[-97.386922,30.429948],[-97.387189,30.431319],[-97.387599,30.43342],[-97.39254,30.434426],[-97.391505,30.436858],[-97.393031,30.438768],[-97.395491,30.437765],[-97.402818,30.440088],[-97.40624,30.442288],[-97.408769,30.43819],[-97.415252,30.438337],[-97.421908,30.444319],[-97.422758,30.445278],[-97.424261,30.447678],[-97.42534,30.447822],[-97.42514,30.449081],[-97.427094,30.452201],[-97.433282,30.45291],[-97.434113,30.459719],[-97.437301,30.460763],[-97.439541,30.460282],[-97.441836,30.455332],[-97.444239,30.455945],[-97.444949,30.456125],[-97.445628,30.461404],[-97.45339,30.461306],[-97.459784,30.458317],[-97.463933,30.460643],[-97.466917,30.46519],[-97.471326,30.466974],[-97.475502,30.467145],[-97.476492,30.469126],[-97.480123,30.470432],[-97.486429,30.469473],[-97.489092,30.473292],[-97.497277,30.476335],[-97.501348,30.477292],[-97.501374,30.477923],[-97.502551,30.480567],[-97.50479,30.481095],[-97.510862,30.485265],[-97.522357,30.476381],[-97.523448,30.473553],[-97.523971,30.472175],[-97.528151,30.475434],[-97.540501,30.478639],[-97.543168,30.47935],[-97.543443,30.479425],[-97.544183,30.479535],[-97.544233,30.479476],[-97.543141,30.479161],[-97.546079,30.47542],[-97.550068,30.476483],[-97.549495,30.480182],[-97.54949,30.480249],[-97.549326,30.48113],[-97.551561,30.486247],[-97.552964,30.490295],[-97.563456,30.491832],[-97.563769,30.495557],[-97.568886,30.496162],[-97.568255,30.499725],[-97.570282,30.500019],[-97.572076,30.500257],[-97.572658,30.500277],[-97.573233,30.50019],[-97.574519,30.500246],[-97.575054,30.500275],[-97.577928,30.500411],[-97.578005,30.500413],[-97.578186,30.50043],[-97.579808,30.500501],[-97.580053,30.500394],[-97.580596,30.500698],[-97.581177,30.500751],[-97.586283,30.498769],[-97.587881,30.498006],[-97.588793,30.497915],[-97.589855,30.497397],[-97.591055,30.497564],[-97.591314,30.500909],[-97.593523,30.500497],[-97.596162,30.501481],[-97.601609,30.498695],[-97.603536,30.497184],[-97.603905,30.496915],[-97.60439,30.496486],[-97.60609,30.495138],[-97.606833,30.490313],[-97.610186,30.489999],[-97.615275,30.489546],[-97.61754,30.489421],[-97.618647,30.490377],[-97.624229,30.487297],[-97.624516,30.487138],[-97.624592,30.487096],[-97.628008,30.485236],[-97.632499,30.484111],[-97.633633,30.48401],[-97.641347,30.482039],[-97.64152,30.481826],[-97.643898,30.479006],[-97.643475,30.478077],[-97.645823,30.477128],[-97.646087,30.477043],[-97.648761,30.475987],[-97.649835,30.475539],[-97.650761,30.475215],[-97.651441,30.474894],[-97.653525,30.475854],[-97.656269,30.477315],[-97.659195,30.478959],[-97.663886,30.481593],[-97.665678,30.480931],[-97.669898,30.478414],[-97.673759,30.480101],[-97.673946,30.480093],[-97.67424,30.48079],[-97.682893,30.480066],[-97.68412,30.47629],[-97.6866,30.468257],[-97.687698,30.464914],[-97.688784,30.461401],[-97.689519,30.461422],[-97.692142,30.461496],[-97.694592,30.461501],[-97.695984,30.461401],[-97.703984,30.458501],[-97.715192,30.458648],[-97.720358,30.456139],[-97.721149,30.455835],[-97.729986,30.451519],[-97.733685,30.449701],[-97.738983,30.449578],[-97.746223,30.449417],[-97.746803,30.449346],[-97.749634,30.44757],[-97.751559,30.444905],[-97.754665,30.440223],[-97.754523,30.439282],[-97.753635,30.433287],[-97.765323,30.432404],[-97.765609,30.432407],[-97.766056,30.432411],[-97.767986,30.432571],[-97.773563,30.430743],[-97.77634,30.429768],[-97.777287,30.431946],[-97.779387,30.438401],[-97.779967,30.438733],[-97.783788,30.439902],[-97.785341,30.440655],[-97.788777,30.44419],[-97.794409,30.444843],[-97.799725,30.447138],[-97.804016,30.447165],[-97.811942,30.447067],[-97.818448,30.451303],[-97.823069,30.453436],[-97.823981,30.454287],[-97.825723,30.455605],[-97.825881,30.455731],[-97.826064,30.455854],[-97.826562,30.457517],[-97.832012,30.461871],[-97.84117,30.469126],[-97.846273,30.473201],[-97.846541,30.47341],[-97.845893,30.475635],[-97.846628,30.476713],[-97.84697,30.47721],[-97.848122,30.478549],[-97.85124,30.48276],[-97.852275,30.484131],[-97.857747,30.491357],[-97.85922,30.493305],[-97.859328,30.493448],[-97.862248,30.497309],[-97.858447,30.500783],[-97.858393,30.500831],[-97.856107,30.502812],[-97.855765,30.507401],[-97.859401,30.511916],[-97.859729,30.512315],[-97.86721,30.517309],[-97.871416,30.522714],[-97.871139,30.524561],[-97.870861,30.526421],[-97.867866,30.546499],[-97.868845,30.546997],[-97.873648,30.549441],[-97.881295,30.553304],[-97.883369,30.552958],[-97.88412,30.553593],[-97.886785,30.555843],[-97.887695,30.556612],[-97.888596,30.563925],[-97.890039,30.565803],[-97.891455,30.566518],[-97.892824,30.565171],[-97.893324,30.565074],[-97.894276,30.565013],[-97.895785,30.564917],[-97.898363,30.567086],[-97.900129,30.568914],[-97.902456,30.571328],[-97.906325,30.570275],[-97.911289,30.568331],[-97.921825,30.564231],[-97.926985,30.567654],[-97.919151,30.576198],[-97.919033,30.576328],[-97.916977,30.578546],[-97.915123,30.580567],[-97.920383,30.586774],[-97.921895,30.590958],[-97.92008,30.596218],[-97.917063,30.604871],[-97.921919,30.606353],[-97.927985,30.608204],[-97.934809,30.610286],[-97.9405,30.614824],[-97.951883,30.625191],[-97.956734,30.628249],[-97.96259,30.62519],[-97.966311,30.623676],[-97.977867,30.622114],[-97.991015,30.609849],[-97.9924,30.609494],[-97.997989,30.613024],[-98.001945,30.621425],[-98.004302,30.62519],[-98.006276,30.627516],[-98.012741,30.616767],[-98.017729,30.616455],[-98.0297,30.614723],[-98.036495,30.611726],[-98.039592,30.618553],[-98.040294,30.618204],[-98.049886,30.624155]]]}}]}
